<?xml version='1.0' encoding='utf-8'?>
<q:quakeml xmlns:ns0="MICROQUAKE" xmlns:q="http://quakeml.org/xmlns/quakeml/1.2" xmlns="http://quakeml.org/xmlns/bed/1.2">
  <eventParameters publicID="smi:local/dacfac18-54c0-4328-8619-47e46d6640b9">
    <event publicID="smi:local/ef39717f-83d0-4b22-a3ec-796895c8d45d">
      <preferredOriginID>smi:local/191195c3-9014-4139-81df-4041d37d2f99</preferredOriginID>
      <origin publicID="smi:local/abcdf095-c9d2-4285-baa2-d7f2cc0f64d9">
        <time>
          <value>2018-05-23T10:51:02.211000Z</value>
        </time>
        <latitude/>
        <longitude/>
        <ns0:loc>[0 0 0]</ns0:loc>
        <ns0:y>4767395</ns0:y>
        <ns0:method>InterLoc Event</ns0:method>
        <ns0:x>651275</ns0:x>
        <ns0:z>-175</ns0:z>
        <ns0:uncertainty>0</ns0:uncertainty>
      </origin>
      <origin publicID="smi:local/191195c3-9014-4139-81df-4041d37d2f99">
        <time>
          <value>2018-05-23T10:51:02.203562Z</value>
        </time>
        <latitude/>
        <longitude/>
        <evaluationMode>automatic</evaluationMode>
        <evaluationStatus>preliminary</evaluationStatus>
        <arrival publicID="smi:local/bd8e2bc1-cc46-4798-b1fe-52cd57a27f74">
          <pickID>smi:local/112c91c0-fe79-4bb9-b1af-d278eb018df9</pickID>
          <phase>S</phase>
        </arrival>
        <arrival publicID="smi:local/8dec740d-0d0b-4218-95df-4584fde8567b">
          <pickID>smi:local/4e115146-dca5-47de-b52c-53d9806aba37</pickID>
          <phase>P</phase>
        </arrival>
        <arrival publicID="smi:local/5d9f285f-ca63-4174-94e2-6f8d0cfdc070">
          <pickID>smi:local/190149f8-ceb8-419a-94a8-18d5e30e9a21</pickID>
          <phase>S</phase>
        </arrival>
        <arrival publicID="smi:local/dddb92b6-1f67-44d1-9f9d-ca0fb2404fe0">
          <pickID>smi:local/54cfab2c-85bf-4cfd-9451-d11d30064e36</pickID>
          <phase>P</phase>
        </arrival>
        <arrival publicID="smi:local/a30368a7-7cbe-4f10-a830-dd25fc5bb4a6">
          <pickID>smi:local/f848c8ce-7862-4329-b9e6-a54d3d64805f</pickID>
          <phase>P</phase>
        </arrival>
        <arrival publicID="smi:local/14b8382f-12f8-43bc-9949-2cb1ca1c76de">
          <pickID>smi:local/46756e95-0cfa-4f91-84cf-15a841c75d84</pickID>
          <phase>S</phase>
        </arrival>
        <arrival publicID="smi:local/6a10ec70-e4ee-4038-beb4-494caf8e8d7f">
          <pickID>smi:local/e7a4bff6-33eb-4cbd-ab50-2783f9dfcc45</pickID>
          <phase>P</phase>
        </arrival>
        <arrival publicID="smi:local/4617f205-1d86-48c7-a647-c24b5afa0983">
          <pickID>smi:local/00e415ed-08ba-4273-ab90-c6b9c1f3d31e</pickID>
          <phase>S</phase>
        </arrival>
        <arrival publicID="smi:local/05953fd2-c432-4a39-81f3-a3c8205bf448">
          <pickID>smi:local/8040e6cb-bad7-4e77-8a1b-932898a5dccd</pickID>
          <phase>P</phase>
        </arrival>
        <arrival publicID="smi:local/57ada13e-ad34-40bd-8772-6a69dafbf2c4">
          <pickID>smi:local/ad86f6e0-66ab-4041-9c0d-102cba3a4b0b</pickID>
          <phase>S</phase>
        </arrival>
        <arrival publicID="smi:local/c2682bc4-655b-4550-95db-0ea3188d7d42">
          <pickID>smi:local/17053942-5247-4e20-8ab3-61d899461f03</pickID>
          <phase>P</phase>
        </arrival>
        <arrival publicID="smi:local/9bdcfb2b-8658-4993-8eff-f18ec2f3487d">
          <pickID>smi:local/be068155-14a9-44a9-b1f0-b09b49485fa5</pickID>
          <phase>S</phase>
        </arrival>
        <arrival publicID="smi:local/f4c60767-6c94-4973-a421-9d0c45238afa">
          <pickID>smi:local/b4b8ae22-aa0c-40a3-8d0d-8377094646f4</pickID>
          <phase>P</phase>
        </arrival>
        <arrival publicID="smi:local/f4577289-53f1-4399-8beb-b0446f8e73e6">
          <pickID>smi:local/b95f3a05-47ed-4d3f-86a2-6d296823001b</pickID>
          <phase>S</phase>
        </arrival>
        <arrival publicID="smi:local/8f4eed22-a03f-42e4-9cd1-3d74d0945fa9">
          <pickID>smi:local/c9ef9146-f49d-4cc1-a9ac-25b63c40c156</pickID>
          <phase>P</phase>
        </arrival>
        <arrival publicID="smi:local/7ac77307-36d7-45fb-a51c-188d907972a5">
          <pickID>smi:local/23295824-4ba9-4b45-907b-c7ecce05b90d</pickID>
          <phase>S</phase>
        </arrival>
        <arrival publicID="smi:local/a6148619-e394-4f0b-b7f7-10a6e7be2daa">
          <pickID>smi:local/4dee1cfc-b310-4e5d-b9d1-16175c06a603</pickID>
          <phase>P</phase>
        </arrival>
        <arrival publicID="smi:local/0290d632-0006-4782-a319-f7d4e21677b9">
          <pickID>smi:local/ba4d1c1b-e2c7-4c63-8986-23440ce5b2ab</pickID>
          <phase>S</phase>
        </arrival>
        <arrival publicID="smi:local/13943e08-5795-4354-8b64-a3e8c3c4a3cc">
          <pickID>smi:local/c9648ecb-5edc-4337-a4d0-af1e209971d7</pickID>
          <phase>P</phase>
        </arrival>
        <arrival publicID="smi:local/ca27d0e3-d949-4b7b-9b11-f6c84b6d106d">
          <pickID>smi:local/f0768fe6-fcbd-45e7-95cd-fd8a8a01e287</pickID>
          <phase>S</phase>
        </arrival>
        <arrival publicID="smi:local/5a64fc7a-20f8-49f0-bc3a-6e7545962bec">
          <pickID>smi:local/f0a84f04-d84a-43c8-8b0f-71ecb2cf6651</pickID>
          <phase>P</phase>
        </arrival>
        <arrival publicID="smi:local/7f5f9613-6bc6-4a09-8590-95509e8c4851">
          <pickID>smi:local/7ca18bdf-c6c2-444d-b630-99a27041494a</pickID>
          <phase>S</phase>
        </arrival>
        <arrival publicID="smi:local/46ceb324-b93b-4a99-b369-eaf72fccd645">
          <pickID>smi:local/bc90e833-2eb2-4ab6-bfb6-62507c791fde</pickID>
          <phase>P</phase>
        </arrival>
        <arrival publicID="smi:local/cacf0345-4957-40a4-8f9a-eff6cc9e609a">
          <pickID>smi:local/211989a7-2547-46ff-af15-63766818c5dc</pickID>
          <phase>S</phase>
        </arrival>
        <arrival publicID="smi:local/55cdf73b-db44-4d50-bff8-bcd065349a42">
          <pickID>smi:local/61e1804e-fe45-4ea7-8202-1deb1bd5c54d</pickID>
          <phase>P</phase>
        </arrival>
        <arrival publicID="smi:local/ed046c96-b582-49ee-b3e7-f85844f58067">
          <pickID>smi:local/d7ab8486-ffb1-405d-8b01-0283667d336d</pickID>
          <phase>S</phase>
        </arrival>
        <arrival publicID="smi:local/c5de48f1-eccc-4ac4-ac9e-37cb43bb2b03">
          <pickID>smi:local/904fcad2-bfff-457d-bc9a-685cf6309151</pickID>
          <phase>P</phase>
        </arrival>
        <arrival publicID="smi:local/e4efbfa2-5c06-4320-a297-bcffc545a347">
          <pickID>smi:local/fd4dbcf6-3bf8-4abe-8bf8-e4984870c98a</pickID>
          <phase>S</phase>
        </arrival>
        <arrival publicID="smi:local/0baf1b0b-2546-43e3-a1e4-a654576c2ce7">
          <pickID>smi:local/53cb53aa-1e6d-4c2b-b433-feae4b001ed8</pickID>
          <phase>P</phase>
        </arrival>
        <arrival publicID="smi:local/326df69e-b27a-4251-8111-a4afc6476179">
          <pickID>smi:local/6685aab8-64a7-446a-b7c1-c4cfabbe0980</pickID>
          <phase>S</phase>
        </arrival>
        <arrival publicID="smi:local/fa236994-3bee-4a14-be8c-161521ee6c8c">
          <pickID>smi:local/e138c308-dc2c-44d3-83a5-23e287531558</pickID>
          <phase>P</phase>
        </arrival>
        <arrival publicID="smi:local/7e1656ba-03d9-4ee2-afa2-a23ef446c151">
          <pickID>smi:local/926a934e-452b-48a9-bf79-d3387679d760</pickID>
          <phase>S</phase>
        </arrival>
        <arrival publicID="smi:local/3fa009a4-86b6-45ec-91a5-51786db691aa">
          <pickID>smi:local/41315ec6-c149-4ea7-b4b1-5124c6e9dc20</pickID>
          <phase>P</phase>
        </arrival>
        <arrival publicID="smi:local/436de54d-85b4-421c-9a63-9e203cf8a7a2">
          <pickID>smi:local/40f559c5-fbc0-4a01-84f6-668336db3b6b</pickID>
          <phase>S</phase>
        </arrival>
        <arrival publicID="smi:local/b247c4f3-5d85-4faf-825c-f910983bd64a">
          <pickID>smi:local/25cbeed0-0437-4a4e-8953-710b518b2673</pickID>
          <phase>P</phase>
        </arrival>
        <arrival publicID="smi:local/8e3023a4-b4b4-4366-bdc6-03b204ae8dd8">
          <pickID>smi:local/89462406-ad80-4cd1-bf46-54c07e453dc5</pickID>
          <phase>S</phase>
        </arrival>
        <arrival publicID="smi:local/80b15d32-7999-4da2-896c-98cb5ee2e104">
          <pickID>smi:local/a295ec57-f367-4ec8-a873-83f0fb9fe825</pickID>
          <phase>P</phase>
        </arrival>
        <arrival publicID="smi:local/c77ced89-6217-4bac-ba8a-db06da751bd6">
          <pickID>smi:local/93e8d635-24b4-48eb-b527-3de6ce5b20a4</pickID>
          <phase>S</phase>
        </arrival>
        <arrival publicID="smi:local/88087f43-c657-4d98-b83c-4cd61e410fa5">
          <pickID>smi:local/b1d86dd3-3567-48a9-bcbb-97b7e1570a4d</pickID>
          <phase>P</phase>
        </arrival>
        <arrival publicID="smi:local/b58ad642-c61b-4a89-b547-2b55bf52826e">
          <pickID>smi:local/6c0b318d-d0e3-473b-bcb1-6676d9a3bf72</pickID>
          <phase>S</phase>
        </arrival>
        <arrival publicID="smi:local/58864d98-98de-40ec-bb0f-9bd59a84467a">
          <pickID>smi:local/88865510-f2a1-485c-8431-3ef67c4836cd</pickID>
          <phase>P</phase>
        </arrival>
        <arrival publicID="smi:local/eaadd1f4-aad7-4c9d-9bde-cae0baf782a7">
          <pickID>smi:local/37d3cbe8-fe9f-4f54-9d53-65912c8052e6</pickID>
          <phase>S</phase>
        </arrival>
        <arrival publicID="smi:local/cc68396c-fe46-4cc4-a90f-dd7f171acb92">
          <pickID>smi:local/4b617f85-0c1e-44d3-bdfe-f67fc0ca3f1d</pickID>
          <phase>P</phase>
        </arrival>
        <arrival publicID="smi:local/48341cc2-c15f-41f9-afc2-d3612b7b963b">
          <pickID>smi:local/b0ee3797-4056-49f3-93ca-0adffa60e3ea</pickID>
          <phase>S</phase>
        </arrival>
        <arrival publicID="smi:local/adb6236e-7a6f-492a-b107-70f7c47cfef6">
          <pickID>smi:local/7f6ecaf1-5d05-44e3-b96d-721c2deb6c21</pickID>
          <phase>P</phase>
        </arrival>
        <arrival publicID="smi:local/40a84530-702e-495d-98d9-29cc4e5a0478">
          <pickID>smi:local/b87a4e04-72db-4e7f-9af3-bb4109d226de</pickID>
          <phase>P</phase>
        </arrival>
        <arrival publicID="smi:local/a2b45e8c-6058-418a-bbbe-b4ddf5899f9f">
          <pickID>smi:local/b99a5aff-e2ac-4435-b73b-7f56b3d1eaf3</pickID>
          <phase>S</phase>
        </arrival>
        <arrival publicID="smi:local/bee0e6d3-8f80-4978-81a8-5b9d77897b58">
          <pickID>smi:local/48224e6e-a292-4d9b-b9cf-33090c18c7a7</pickID>
          <phase>P</phase>
        </arrival>
        <arrival publicID="smi:local/205c7941-a265-410d-b1b2-df2c60fc7b93">
          <pickID>smi:local/4b446b86-bbd9-4740-9d50-cb37f6cf8678</pickID>
          <phase>S</phase>
        </arrival>
        <arrival publicID="smi:local/eccb11a4-66f9-40a4-87c8-3ef09566b2c9">
          <pickID>smi:local/d6bfc860-848f-40a4-93dc-89e45d109d49</pickID>
          <phase>P</phase>
        </arrival>
        <arrival publicID="smi:local/13478ca9-52bb-4a25-a0c5-5bcc5874171d">
          <pickID>smi:local/6323fefc-37e1-4477-a709-7d880b06f1e7</pickID>
          <phase>P</phase>
        </arrival>
        <arrival publicID="smi:local/2be2cb25-b7f3-48ba-9a25-bcf52fdf7549">
          <pickID>smi:local/4221cfa8-38b3-474f-b8b8-00ee1656a0af</pickID>
          <phase>S</phase>
        </arrival>
        <arrival publicID="smi:local/9f62c7fb-8145-4869-9726-2c665ec575fb">
          <pickID>smi:local/d61e5547-818e-4b16-af68-8e6d38141a35</pickID>
          <phase>P</phase>
        </arrival>
        <arrival publicID="smi:local/71408126-d0d2-4698-ae42-bbe94a5fe50c">
          <pickID>smi:local/a8fd6d96-40ef-47dc-9a53-25e0ffdf493c</pickID>
          <phase>S</phase>
        </arrival>
        <arrival publicID="smi:local/ebcb953d-df4b-4b0e-8842-72442f0b94c2">
          <pickID>smi:local/46304109-e05f-4f15-b13e-a969d7cd3bd9</pickID>
          <phase>P</phase>
        </arrival>
        <arrival publicID="smi:local/969a84f2-9230-4857-a5df-a6a5688d7989">
          <pickID>smi:local/08639c14-4a76-46a2-9f8f-2b558e582617</pickID>
          <phase>S</phase>
        </arrival>
        <arrival publicID="smi:local/6c68872a-f21d-4bab-a13b-1184cd572384">
          <pickID>smi:local/c27910ac-a14f-421b-8baa-d172e4ae27a1</pickID>
          <phase>P</phase>
        </arrival>
        <arrival publicID="smi:local/b329798b-31cb-474e-86b9-ff1e375068da">
          <pickID>smi:local/423dc3e4-cd23-4bc3-a5d3-f853f80342ec</pickID>
          <phase>S</phase>
        </arrival>
        <arrival publicID="smi:local/4705a5f8-f64c-49b2-807d-4381193d8513">
          <pickID>smi:local/b8f7b49f-288b-45c8-bd0c-1afb2294cbb0</pickID>
          <phase>P</phase>
        </arrival>
        <arrival publicID="smi:local/3e4e86c3-3b9b-4acb-b5a1-604a7c853fed">
          <pickID>smi:local/edf083e3-1d0d-467d-8ca3-84ac171838ca</pickID>
          <phase>S</phase>
        </arrival>
        <arrival publicID="smi:local/ba5b1f69-0295-4c2a-8bf3-c5231c8c707d">
          <pickID>smi:local/f4e51d59-e02f-455e-aa9f-092a13a5864f</pickID>
          <phase>P</phase>
        </arrival>
        <arrival publicID="smi:local/06eaec94-19af-4b69-8b76-943b99b5b583">
          <pickID>smi:local/b9957dd1-aeea-4955-904a-b672d508ee7e</pickID>
          <phase>S</phase>
        </arrival>
        <arrival publicID="smi:local/b59d5528-3f43-49e9-bbae-7129311481d3">
          <pickID>smi:local/7d21b272-f4d2-49b0-b1cf-ba2692639b22</pickID>
          <phase>P</phase>
        </arrival>
        <arrival publicID="smi:local/7578beab-25d6-405f-8f19-68ec1b5a06ef">
          <pickID>smi:local/d49eefef-62d3-48c6-809a-4c0528352492</pickID>
          <phase>P</phase>
        </arrival>
        <arrival publicID="smi:local/97d54c9e-9067-43a9-b116-352f56417d33">
          <pickID>smi:local/bd735730-9bf9-4026-8352-59116b60e855</pickID>
          <phase>S</phase>
        </arrival>
        <arrival publicID="smi:local/0a2f200c-c46a-4f1a-8d5e-87daec163b92">
          <pickID>smi:local/52dbe9d3-655c-4e00-ac1f-720524ac8915</pickID>
          <phase>P</phase>
        </arrival>
        <arrival publicID="smi:local/35652203-1ef6-4b7f-a066-a307253b40c0">
          <pickID>smi:local/e20fb9e4-5b74-4f8e-9509-4befa39aceef</pickID>
          <phase>S</phase>
        </arrival>
        <arrival publicID="smi:local/c96a4f51-333f-4000-bbb8-693b56246d03">
          <pickID>smi:local/bdfe7291-d72b-453e-b45c-a72bb6e33be4</pickID>
          <phase>P</phase>
        </arrival>
        <arrival publicID="smi:local/a6b1d297-2c8a-4e96-b9c8-a28c53e3c6fe">
          <pickID>smi:local/627b1faf-4aad-4ab3-9930-044da866f696</pickID>
          <phase>S</phase>
        </arrival>
        <arrival publicID="smi:local/66025112-f8b7-4f1c-ac39-acfbbac587bd">
          <pickID>smi:local/a34da93e-305b-431e-80ce-fa18182848a8</pickID>
          <phase>P</phase>
        </arrival>
        <arrival publicID="smi:local/cba055cf-0892-4e9a-95b7-5f3f688ccf30">
          <pickID>smi:local/641eed0e-0564-47f9-b061-a4c7605eadaf</pickID>
          <phase>S</phase>
        </arrival>
        <arrival publicID="smi:local/018f5e36-99a1-46d8-8143-a361db2c948c">
          <pickID>smi:local/7220342d-3916-4be7-9087-7e3671d811ed</pickID>
          <phase>P</phase>
        </arrival>
        <arrival publicID="smi:local/2953ac54-bb9d-4c67-959e-900b24eefa33">
          <pickID>smi:local/315c3ab1-5373-47a3-95df-549c1875ae8d</pickID>
          <phase>S</phase>
        </arrival>
        <arrival publicID="smi:local/b97fe203-3c66-4af5-aad1-77870e82076b">
          <pickID>smi:local/a2ea0413-ae1a-43d6-8c0d-2175b4578796</pickID>
          <phase>P</phase>
        </arrival>
        <arrival publicID="smi:local/86388026-6df2-4c83-9c7e-517f6142006c">
          <pickID>smi:local/5db0915d-7ad2-4d79-af1d-7fcd958952e2</pickID>
          <phase>S</phase>
        </arrival>
        <arrival publicID="smi:local/826cdc83-a5b8-4c81-9967-a0d156e6d925">
          <pickID>smi:local/720d4d39-d93f-4926-8875-e6bc54cf2260</pickID>
          <phase>P</phase>
        </arrival>
        <arrival publicID="smi:local/17d6fa61-537a-4550-adf8-8cfd76c7213a">
          <pickID>smi:local/dda459e4-ebaf-437e-b89c-b646d35fa46a</pickID>
          <phase>S</phase>
        </arrival>
        <arrival publicID="smi:local/ed8348d0-69af-412b-922d-cc7db509d08b">
          <pickID>smi:local/dd55bb42-112d-4c89-927b-18d26eff1e01</pickID>
          <phase>P</phase>
        </arrival>
        <arrival publicID="smi:local/17449131-7df9-4600-a546-a0369ffd85ac">
          <pickID>smi:local/0bc2e535-2b57-4d4a-8b60-53ebdb5a17fe</pickID>
          <phase>P</phase>
        </arrival>
        <arrival publicID="smi:local/1a73d6fb-6faa-4f8f-9102-1e8be7fb5a92">
          <pickID>smi:local/6ee5776c-9c41-485f-b66d-8ffea4823f48</pickID>
          <phase>S</phase>
        </arrival>
        <arrival publicID="smi:local/f7b1223d-5534-4c10-aba6-b6e87f2a6a07">
          <pickID>smi:local/2d7d2e70-6a16-4b87-9776-cf97fb2d784f</pickID>
          <phase>P</phase>
        </arrival>
        <arrival publicID="smi:local/9d3f8257-8fbe-438e-8f2f-b469dc2fe910">
          <pickID>smi:local/6144d946-9f88-46d6-9f16-0cd916b7f0de</pickID>
          <phase>S</phase>
        </arrival>
        <arrival publicID="smi:local/e4e379a3-fe43-4006-abc6-79265b2bfd54">
          <pickID>smi:local/d8dff52d-5b8b-4808-a4e2-2d9a5e5b923d</pickID>
          <phase>P</phase>
        </arrival>
        <arrival publicID="smi:local/e94c49f9-56b0-4263-a1a5-bbcedc5fc585">
          <pickID>smi:local/71639599-0e74-44e0-9f21-1d1231f88042</pickID>
          <phase>S</phase>
        </arrival>
        <arrival publicID="smi:local/66e7cab8-2158-47cc-a2f8-1bfdc480c61e">
          <pickID>smi:local/74d6580a-d156-499a-b29d-f546daca81f9</pickID>
          <phase>P</phase>
        </arrival>
        <arrival publicID="smi:local/bd7fc003-92fc-440c-891b-85de75b2120f">
          <pickID>smi:local/6557b01b-835b-4dbc-aede-856a4f7db97d</pickID>
          <phase>S</phase>
        </arrival>
        <arrival publicID="smi:local/3abd3356-503a-4405-b194-efbc81469811">
          <pickID>smi:local/5b0747d0-0fba-429c-ae96-8380214b074b</pickID>
          <phase>P</phase>
        </arrival>
        <arrival publicID="smi:local/3e309c56-7e5c-407a-a114-1b771c3a19c0">
          <pickID>smi:local/aaf0be07-7bed-4fe1-ba54-48b0bcaa22bc</pickID>
          <phase>S</phase>
        </arrival>
        <arrival publicID="smi:local/21ed1e9e-c575-4536-8b01-2b994b2685d0">
          <pickID>smi:local/d17d7a35-f223-4806-bb81-7a3df15b3002</pickID>
          <phase>P</phase>
        </arrival>
        <arrival publicID="smi:local/6fbc326b-4260-45c5-a4b4-0224a9f7bdd5">
          <pickID>smi:local/1482f129-6337-4bf6-88a7-078c5e810200</pickID>
          <phase>S</phase>
        </arrival>
        <arrival publicID="smi:local/c8507ea8-ef62-4220-b953-855d14bce784">
          <pickID>smi:local/ef38f11a-3f60-4610-a706-1b51bed64559</pickID>
          <phase>P</phase>
        </arrival>
        <arrival publicID="smi:local/1597051a-3315-4ccc-80b8-3670183f98c0">
          <pickID>smi:local/398930fc-58b9-4945-afc2-9bbcfdc786ef</pickID>
          <phase>S</phase>
        </arrival>
        <arrival publicID="smi:local/cc6cbbac-ed33-4720-a9bd-b22c798efcd3">
          <pickID>smi:local/461412a8-2e3e-479b-905a-7307217425de</pickID>
          <phase>P</phase>
        </arrival>
        <arrival publicID="smi:local/8658dab6-6520-44b1-b569-21c601184c95">
          <pickID>smi:local/a4913ff2-98f2-4a02-87f8-408f6f64bf7e</pickID>
          <phase>S</phase>
        </arrival>
        <arrival publicID="smi:local/fb04d091-8747-4b6a-a966-9c361c7afe46">
          <pickID>smi:local/04b2d126-143e-47a7-87a9-36ec035671cb</pickID>
          <phase>P</phase>
        </arrival>
        <arrival publicID="smi:local/209697a7-b964-42f3-be5d-e44478461a5d">
          <pickID>smi:local/b3c485fc-8796-4ffb-861f-3df34120f754</pickID>
          <phase>S</phase>
        </arrival>
