<?xml version='1.0' encoding='utf-8'?>
<q:quakeml xmlns:ns0="MICROQUAKE" xmlns:q="http://quakeml.org/xmlns/quakeml/1.2" xmlns="http://quakeml.org/xmlns/bed/1.2">
  <eventParameters publicID="smi:local/3acd2838-2213-4e15-9c56-156ec51f9bcb">
    <event publicID="smi:local/ef39717f-83d0-4b22-a3ec-796895c8d45d">
      <preferredOriginID>smi:local/abcdf095-c9d2-4285-baa2-d7f2cc0f64d9</preferredOriginID>
      <origin publicID="smi:local/abcdf095-c9d2-4285-baa2-d7f2cc0f64d9">
        <time>
          <value>2018-05-23T10:51:02.211000Z</value>
        </time>
        <latitude/>
        <longitude/>
        <ns0:loc>[0 0 0]</ns0:loc>
        <ns0:y>4767395</ns0:y>
        <ns0:method>InterLoc Event</ns0:method>
        <ns0:x>651275</ns0:x>
        <ns0:z>-175</ns0:z>
        <ns0:uncertainty>0</ns0:uncertainty>
      </origin>
      <origin publicID="smi:local/191195c3-9014-4139-81df-4041d37d2f99">
        <time>
          <value>2018-05-23T10:51:02.203562Z</value>
        </time>
        <latitude/>
        <longitude/>
        <evaluationMode>automatic</evaluationMode>
        <evaluationStatus>preliminary</evaluationStatus>
        <ns0:loc>[0 0 0]</ns0:loc>
        <ns0:y>4767395</ns0:y>
        <ns0:method>spp.travel_time.core.create_event</ns0:method>
        <ns0:x>651275</ns0:x>
        <ns0:z>-175</ns0:z>
        <ns0:uncertainty>0</ns0:uncertainty>
      </origin>
      <pick publicID="smi:local/bc563e21-9259-4ccd-9cc5-4e40a93570d3">
        <time>
          <value>2018-05-23T10:51:02.423891Z</value>
        </time>
        <waveformID channelCode="" stationCode="10"></waveformID>
        <phaseHint>P</phaseHint>
        <evaluationMode>automatic</evaluationMode>
        <evaluationStatus>preliminary</evaluationStatus>
        <ns0:method>theoretical prediction from get_travel_time_grid, use_eikonal=False</ns0:method>
      </pick>
      <pick publicID="smi:local/728b7d09-7d19-4650-8a9d-211215b558f7">
        <time>
          <value>2018-05-23T10:51:02.321746Z</value>
        </time>
        <waveformID channelCode="" stationCode="11"></waveformID>
        <phaseHint>P</phaseHint>
        <evaluationMode>automatic</evaluationMode>
        <evaluationStatus>preliminary</evaluationStatus>
        <ns0:method>theoretical prediction from get_travel_time_grid, use_eikonal=False</ns0:method>
      </pick>
      <pick publicID="smi:local/1bc0f0e7-0496-4708-93b7-d629c0f80bbd">
        <time>
          <value>2018-05-23T10:51:02.481255Z</value>
        </time>
        <waveformID channelCode="" stationCode="12"></waveformID>
        <phaseHint>P</phaseHint>
        <evaluationMode>automatic</evaluationMode>
        <evaluationStatus>preliminary</evaluationStatus>
        <ns0:method>theoretical prediction from get_travel_time_grid, use_eikonal=False</ns0:method>
      </pick>
      <pick publicID="smi:local/f7cb65c9-0780-4e5d-8b7e-ac4de667e70c">
        <time>
          <value>2018-05-23T10:51:02.446125Z</value>
        </time>
        <waveformID channelCode="" stationCode="13"></waveformID>
        <phaseHint>P</phaseHint>
        <evaluationMode>automatic</evaluationMode>
        <evaluationStatus>preliminary</evaluationStatus>
        <ns0:method>theoretical prediction from get_travel_time_grid, use_eikonal=False</ns0:method>
      </pick>
      <pick publicID="smi:local/c0e5a132-1b63-43ac-8549-016dd60bf171">
        <time>
          <value>2018-05-23T10:51:02.410644Z</value>
        </time>
        <waveformID channelCode="" stationCode="14"></waveformID>
        <phaseHint>P</phaseHint>
        <evaluationMode>automatic</evaluationMode>
        <evaluationStatus>preliminary</evaluationStatus>
        <ns0:method>theoretical prediction from get_travel_time_grid, use_eikonal=False</ns0:method>
      </pick>
      <pick publicID="smi:local/681bc84f-d15d-472f-b759-afb34c39d302">
        <time>
          <value>2018-05-23T10:51:02.382932Z</value>
        </time>
        <waveformID channelCode="" stationCode="15"></waveformID>
        <phaseHint>P</phaseHint>
        <evaluationMode>automatic</evaluationMode>
        <evaluationStatus>preliminary</evaluationStatus>
        <ns0:method>theoretical prediction from get_travel_time_grid, use_eikonal=False</ns0:method>
      </pick>
      <pick publicID="smi:local/583706f1-56f8-464a-9f61-112e612c13eb">
        <time>
          <value>2018-05-23T10:51:02.368941Z</value>
        </time>
        <waveformID channelCode="" stationCode="16"></waveformID>
        <phaseHint>P</phaseHint>
        <evaluationMode>automatic</evaluationMode>
        <evaluationStatus>preliminary</evaluationStatus>
        <ns0:method>theoretical prediction from get_travel_time_grid, use_eikonal=False</ns0:method>
      </pick>
      <pick publicID="smi:local/602a02bb-de77-4536-b7fc-614521b32ad6">
        <time>
          <value>2018-05-23T10:51:02.358355Z</value>
        </time>
        <waveformID channelCode="" stationCode="17"></waveformID>
        <phaseHint>P</phaseHint>
        <evaluationMode>automatic</evaluationMode>
        <evaluationStatus>preliminary</evaluationStatus>
        <ns0:method>theoretical prediction from get_travel_time_grid, use_eikonal=False</ns0:method>
      </pick>
      <pick publicID="smi:local/bd80832f-20f3-463f-aef3-7bd7d81958c8">
        <time>
          <value>2018-05-23T10:51:02.398393Z</value>
        </time>
        <waveformID channelCode="" stationCode="20"></waveformID>
        <phaseHint>P</phaseHint>
        <evaluationMode>automatic</evaluationMode>
        <evaluationStatus>preliminary</evaluationStatus>
        <ns0:method>theoretical prediction from get_travel_time_grid, use_eikonal=False</ns0:method>
      </pick>
      <pick publicID="smi:local/c949b112-51e7-4cca-9fbd-6c759121d283">
        <time>
          <value>2018-05-23T10:51:02.366750Z</value>
        </time>
        <waveformID channelCode="" stationCode="21"></waveformID>
        <phaseHint>P</phaseHint>
        <evaluationMode>automatic</evaluationMode>
        <evaluationStatus>preliminary</evaluationStatus>
        <ns0:method>theoretical prediction from get_travel_time_grid, use_eikonal=False</ns0:method>
      </pick>
      <pick publicID="smi:local/ac8e5fa4-89ac-41b3-97df-30c25d0e50cf">
        <time>
          <value>2018-05-23T10:51:02.346024Z</value>
        </time>
        <waveformID channelCode="" stationCode="22"></waveformID>
        <phaseHint>P</phaseHint>
        <evaluationMode>automatic</evaluationMode>
        <evaluationStatus>preliminary</evaluationStatus>
        <ns0:method>theoretical prediction from get_travel_time_grid, use_eikonal=False</ns0:method>
      </pick>
      <pick publicID="smi:local/7979d926-9f42-48cc-ae3c-da29355b9ce3">
        <time>
          <value>2018-05-23T10:51:02.329350Z</value>
        </time>
        <waveformID channelCode="" stationCode="23"></waveformID>
        <phaseHint>P</phaseHint>
        <evaluationMode>automatic</evaluationMode>
        <evaluationStatus>preliminary</evaluationStatus>
        <ns0:method>theoretical prediction from get_travel_time_grid, use_eikonal=False</ns0:method>
      </pick>
      <pick publicID="smi:local/780ae990-eeda-476d-b6c9-4d9795134fdb">
        <time>
          <value>2018-05-23T10:51:02.223579Z</value>
        </time>
        <waveformID channelCode="" stationCode="24"></waveformID>
        <phaseHint>P</phaseHint>
        <evaluationMode>automatic</evaluationMode>
        <evaluationStatus>preliminary</evaluationStatus>
        <ns0:method>theoretical prediction from get_travel_time_grid, use_eikonal=False</ns0:method>
      </pick>
      <pick publicID="smi:local/b33ae93d-aca3-4a0f-a56b-698dbc8677bd">
        <time>
          <value>2018-05-23T10:51:02.329156Z</value>
        </time>
        <waveformID channelCode="" stationCode="25"></waveformID>
        <phaseHint>P</phaseHint>
        <evaluationMode>automatic</evaluationMode>
        <evaluationStatus>preliminary</evaluationStatus>
        <ns0:method>theoretical prediction from get_travel_time_grid, use_eikonal=False</ns0:method>
      </pick>
      <pick publicID="smi:local/6711a1d4-b543-4acb-8572-cf257cf874a8">
        <time>
          <value>2018-05-23T10:51:02.432000Z</value>
        </time>
        <waveformID channelCode="" stationCode="27"></waveformID>
        <phaseHint>P</phaseHint>
        <evaluationMode>automatic</evaluationMode>
        <evaluationStatus>preliminary</evaluationStatus>
        <ns0:method>theoretical prediction from get_travel_time_grid, use_eikonal=False</ns0:method>
      </pick>
      <pick publicID="smi:local/c6dc2a00-54c4-4c2f-b498-d4aeb8ab1292">
        <time>
          <value>2018-05-23T10:51:02.390395Z</value>
        </time>
        <waveformID channelCode="" stationCode="28"></waveformID>
        <phaseHint>P</phaseHint>
        <evaluationMode>automatic</evaluationMode>
        <evaluationStatus>preliminary</evaluationStatus>
        <ns0:method>theoretical prediction from get_travel_time_grid, use_eikonal=False</ns0:method>
      </pick>
      <pick publicID="smi:local/5b3d6f91-0571-45ea-940b-025c7e550ee9">
        <time>
          <value>2018-05-23T10:51:02.391731Z</value>
        </time>
        <waveformID channelCode="" stationCode="3"></waveformID>
        <phaseHint>P</phaseHint>
        <evaluationMode>automatic</evaluationMode>
        <evaluationStatus>preliminary</evaluationStatus>
        <ns0:method>theoretical prediction from get_travel_time_grid, use_eikonal=False</ns0:method>
      </pick>
      <pick publicID="smi:local/cd876ca1-a3d6-4aee-aa60-1c80084708ea">
        <time>
          <value>2018-05-23T10:51:02.356653Z</value>
        </time>
        <waveformID channelCode="" stationCode="30"></waveformID>
        <phaseHint>P</phaseHint>
        <evaluationMode>automatic</evaluationMode>
        <evaluationStatus>preliminary</evaluationStatus>
        <ns0:method>theoretical prediction from get_travel_time_grid, use_eikonal=False</ns0:method>
      </pick>
      <pick publicID="smi:local/98dbb222-11ac-478c-83f2-9ab8b778740b">
        <time>
          <value>2018-05-23T10:51:02.321896Z</value>
        </time>
        <waveformID channelCode="" stationCode="31"></waveformID>
        <phaseHint>P</phaseHint>
        <evaluationMode>automatic</evaluationMode>
        <evaluationStatus>preliminary</evaluationStatus>
        <ns0:method>theoretical prediction from get_travel_time_grid, use_eikonal=False</ns0:method>
      </pick>
      <pick publicID="smi:local/616ec7bd-2d64-47b7-9f1c-a22dc4bfb67a">
        <time>
          <value>2018-05-23T10:51:02.298088Z</value>
        </time>
        <waveformID channelCode="" stationCode="32"></waveformID>
        <phaseHint>P</phaseHint>
        <evaluationMode>automatic</evaluationMode>
        <evaluationStatus>preliminary</evaluationStatus>
        <ns0:method>theoretical prediction from get_travel_time_grid, use_eikonal=False</ns0:method>
      </pick>
      <pick publicID="smi:local/abe437e6-5fe2-485e-8c37-ef26fa917c5f">
        <time>
          <value>2018-05-23T10:51:02.360913Z</value>
        </time>
        <waveformID channelCode="" stationCode="39"></waveformID>
        <phaseHint>P</phaseHint>
        <evaluationMode>automatic</evaluationMode>
        <evaluationStatus>preliminary</evaluationStatus>
        <ns0:method>theoretical prediction from get_travel_time_grid, use_eikonal=False</ns0:method>
      </pick>
      <pick publicID="smi:local/31db3be9-28b6-4151-a5ac-d51b3460307e">
        <time>
          <value>2018-05-23T10:51:02.391690Z</value>
        </time>
        <waveformID channelCode="" stationCode="4"></waveformID>
        <phaseHint>P</phaseHint>
        <evaluationMode>automatic</evaluationMode>
        <evaluationStatus>preliminary</evaluationStatus>
        <ns0:method>theoretical prediction from get_travel_time_grid, use_eikonal=False</ns0:method>
      </pick>
      <pick publicID="smi:local/e3a3de07-fa83-4359-8e0e-7a1000ccebdc">
        <time>
          <value>2018-05-23T10:51:02.351941Z</value>
        </time>
        <waveformID channelCode="" stationCode="40"></waveformID>
        <phaseHint>P</phaseHint>
        <evaluationMode>automatic</evaluationMode>
        <evaluationStatus>preliminary</evaluationStatus>
        <ns0:method>theoretical prediction from get_travel_time_grid, use_eikonal=False</ns0:method>
      </pick>
      <pick publicID="smi:local/a3433c22-1ff0-4bce-84d6-89604f7601b6">
        <time>
          <value>2018-05-23T10:51:02.503566Z</value>
        </time>
        <waveformID channelCode="" stationCode="42"></waveformID>
        <phaseHint>P</phaseHint>
        <evaluationMode>automatic</evaluationMode>
        <evaluationStatus>preliminary</evaluationStatus>
        <ns0:method>theoretical prediction from get_travel_time_grid, use_eikonal=False</ns0:method>
      </pick>
      <pick publicID="smi:local/d9696ef6-4bf0-4b0d-b67c-dd3241ae48c0">
        <time>
          <value>2018-05-23T10:51:02.451598Z</value>
        </time>
        <waveformID channelCode="" stationCode="43"></waveformID>
        <phaseHint>P</phaseHint>
        <evaluationMode>automatic</evaluationMode>
        <evaluationStatus>preliminary</evaluationStatus>
        <ns0:method>theoretical prediction from get_travel_time_grid, use_eikonal=False</ns0:method>
      </pick>
      <pick publicID="smi:local/505ad9e5-4462-4d3e-b5eb-d672082a18ca">
        <time>
          <value>2018-05-23T10:51:02.428824Z</value>
        </time>
        <waveformID channelCode="" stationCode="44"></waveformID>
        <phaseHint>P</phaseHint>
        <evaluationMode>automatic</evaluationMode>
        <evaluationStatus>preliminary</evaluationStatus>
        <ns0:method>theoretical prediction from get_travel_time_grid, use_eikonal=False</ns0:method>
      </pick>
      <pick publicID="smi:local/f53ee344-2a80-4246-a42b-839ad2ea24b3">
        <time>
          <value>2018-05-23T10:51:02.409596Z</value>
        </time>
        <waveformID channelCode="" stationCode="45"></waveformID>
        <phaseHint>P</phaseHint>
        <evaluationMode>automatic</evaluationMode>
        <evaluationStatus>preliminary</evaluationStatus>
        <ns0:method>theoretical prediction from get_travel_time_grid, use_eikonal=False</ns0:method>
      </pick>
      <pick publicID="smi:local/ac64012f-817d-4857-a088-eb30816150dc">
        <time>
          <value>2018-05-23T10:51:02.398552Z</value>
        </time>
        <waveformID channelCode="" stationCode="46"></waveformID>
        <phaseHint>P</phaseHint>
        <evaluationMode>automatic</evaluationMode>
        <evaluationStatus>preliminary</evaluationStatus>
        <ns0:method>theoretical prediction from get_travel_time_grid, use_eikonal=False</ns0:method>
      </pick>
      <pick publicID="smi:local/aa539324-3439-4e5a-a36d-040cf5112d35">
        <time>
          <value>2018-05-23T10:51:02.389334Z</value>
        </time>
        <waveformID channelCode="" stationCode="47"></waveformID>
        <phaseHint>P</phaseHint>
        <evaluationMode>automatic</evaluationMode>
        <evaluationStatus>preliminary</evaluationStatus>
        <ns0:method>theoretical prediction from get_travel_time_grid, use_eikonal=False</ns0:method>
      </pick>
      <pick publicID="smi:local/5fcb4d6c-421f-4e97-8747-9c67457b6c08">
        <time>
          <value>2018-05-23T10:51:02.473278Z</value>
        </time>
        <waveformID channelCode="" stationCode="48"></waveformID>
        <phaseHint>P</phaseHint>
        <evaluationMode>automatic</evaluationMode>
        <evaluationStatus>preliminary</evaluationStatus>
        <ns0:method>theoretical prediction from get_travel_time_grid, use_eikonal=False</ns0:method>
      </pick>
      <pick publicID="smi:local/b668b47c-e93f-496a-9524-e9979267f111">
        <time>
          <value>2018-05-23T10:51:02.430974Z</value>
        </time>
        <waveformID channelCode="" stationCode="49"></waveformID>
        <phaseHint>P</phaseHint>
        <evaluationMode>automatic</evaluationMode>
        <evaluationStatus>preliminary</evaluationStatus>
        <ns0:method>theoretical prediction from get_travel_time_grid, use_eikonal=False</ns0:method>
      </pick>
      <pick publicID="smi:local/099cddbd-463c-4ead-97c0-006b676b8806">
        <time>
          <value>2018-05-23T10:51:02.404665Z</value>
        </time>
        <waveformID channelCode="" stationCode="50"></waveformID>
        <phaseHint>P</phaseHint>
        <evaluationMode>automatic</evaluationMode>
        <evaluationStatus>preliminary</evaluationStatus>
        <ns0:method>theoretical prediction from get_travel_time_grid, use_eikonal=False</ns0:method>
      </pick>
      <pick publicID="smi:local/b1cb4d2c-e203-45bc-a98b-884e91f412e4">
        <time>
          <value>2018-05-23T10:51:02.381497Z</value>
        </time>
        <waveformID channelCode="" stationCode="51"></waveformID>
        <phaseHint>P</phaseHint>
        <evaluationMode>automatic</evaluationMode>
        <evaluationStatus>preliminary</evaluationStatus>
        <ns0:method>theoretical prediction from get_travel_time_grid, use_eikonal=False</ns0:method>
      </pick>
      <pick publicID="smi:local/06983386-1bae-45f8-bbcf-dc01d3aad496">
        <time>
          <value>2018-05-23T10:51:02.352251Z</value>
        </time>
        <waveformID channelCode="" stationCode="52"></waveformID>
        <phaseHint>P</phaseHint>
        <evaluationMode>automatic</evaluationMode>
        <evaluationStatus>preliminary</evaluationStatus>
        <ns0:method>theoretical prediction from get_travel_time_grid, use_eikonal=False</ns0:method>
      </pick>
      <pick publicID="smi:local/aff7b0fd-ba64-4757-a06c-ac0dbd227b65">
        <time>
          <value>2018-05-23T10:51:02.327178Z</value>
        </time>
        <waveformID channelCode="" stationCode="53"></waveformID>
        <phaseHint>P</phaseHint>
        <evaluationMode>automatic</evaluationMode>
        <evaluationStatus>preliminary</evaluationStatus>
        <ns0:method>theoretical prediction from get_travel_time_grid, use_eikonal=False</ns0:method>
      </pick>
      <pick publicID="smi:local/9f4637d0-d04b-4e58-b355-c0f145f32e3d">
        <time>
          <value>2018-05-23T10:51:02.414585Z</value>
        </time>
        <waveformID channelCode="" stationCode="54"></waveformID>
        <phaseHint>P</phaseHint>
        <evaluationMode>automatic</evaluationMode>
        <evaluationStatus>preliminary</evaluationStatus>
        <ns0:method>theoretical prediction from get_travel_time_grid, use_eikonal=False</ns0:method>
      </pick>
      <pick publicID="smi:local/c1918bb4-639a-41db-ba58-07530a1dd674">
        <time>
          <value>2018-05-23T10:51:02.364928Z</value>
        </time>
        <waveformID channelCode="" stationCode="55"></waveformID>
        <phaseHint>P</phaseHint>
        <evaluationMode>automatic</evaluationMode>
        <evaluationStatus>preliminary</evaluationStatus>
        <ns0:method>theoretical prediction from get_travel_time_grid, use_eikonal=False</ns0:method>
      </pick>
      <pick publicID="smi:local/0d4e79dd-0665-47da-9566-9f4b51d99c9e">
        <time>
          <value>2018-05-23T10:51:02.340617Z</value>
        </time>
        <waveformID channelCode="" stationCode="56"></waveformID>
        <phaseHint>P</phaseHint>
        <evaluationMode>automatic</evaluationMode>
        <evaluationStatus>preliminary</evaluationStatus>
        <ns0:method>theoretical prediction from get_travel_time_grid, use_eikonal=False</ns0:method>
      </pick>
      <pick publicID="smi:local/2e9cbbfd-b96d-4c2f-b2bf-a95b5d15bbf6">
        <time>
          <value>2018-05-23T10:51:02.317357Z</value>
        </time>
        <waveformID channelCode="" stationCode="57"></waveformID>
        <phaseHint>P</phaseHint>
        <evaluationMode>automatic</evaluationMode>
        <evaluationStatus>preliminary</evaluationStatus>
        <ns0:method>theoretical prediction from get_travel_time_grid, use_eikonal=False</ns0:method>
      </pick>
