66     ?    ?    ?    P      D 20180706 1121 01.457648 GAU 1.00e-03 -1.00e+00 -1.00e+00 -1.00e+00
61     ?    ?    ?    S      D 20180706 1121 01.640623 GAU 1.00e-03 -1.00e+00 -1.00e+00 -1.00e+00
61     ?    ?    ?    P      D 20180706 1121 01.426701 GAU 1.00e-03 -1.00e+00 -1.00e+00 -1.00e+00
64     ?    ?    ?    S      D 20180706 1121 01.512992 GAU 1.00e-03 -1.00e+00 -1.00e+00 -1.00e+00
64     ?    ?    ?    P      D 20180706 1121 01.363781 GAU 1.00e-03 -1.00e+00 -1.00e+00 -1.00e+00
23     ?    ?    ?    P      D 20180706 1121 01.318785 GAU 1.00e-03 -1.00e+00 -1.00e+00 -1.00e+00
89     ?    ?    ?    S      D 20180706 1121 01.427945 GAU 1.00e-03 -1.00e+00 -1.00e+00 -1.00e+00
89     ?    ?    ?    P      D 20180706 1121 01.319171 GAU 1.00e-03 -1.00e+00 -1.00e+00 -1.00e+00
40     ?    ?    ?    S      D 20180706 1121 01.419931 GAU 1.00e-03 -1.00e+00 -1.00e+00 -1.00e+00
40     ?    ?    ?    P      D 20180706 1121 01.313629 GAU 1.00e-03 -1.00e+00 -1.00e+00 -1.00e+00
12     ?    ?    ?    S      D 20180706 1121 01.672779 GAU 1.00e-03 -1.00e+00 -1.00e+00 -1.00e+00
12     ?    ?    ?    P      D 20180706 1121 01.450671 GAU 1.00e-03 -1.00e+00 -1.00e+00 -1.00e+00
13     ?    ?    ?    S      D 20180706 1121 01.615173 GAU 1.00e-03 -1.00e+00 -1.00e+00 -1.00e+00
13     ?    ?    ?    P      D 20180706 1121 01.417821 GAU 1.00e-03 -1.00e+00 -1.00e+00 -1.00e+00
18     ?    ?    ?    P      D 20180706 1121 01.435892 GAU 1.00e-03 -1.00e+00 -1.00e+00 -1.00e+00
22     ?    ?    ?    S      D 20180706 1121 01.449236 GAU 1.00e-03 -1.00e+00 -1.00e+00 -1.00e+00
22     ?    ?    ?    P      D 20180706 1121 01.332545 GAU 1.00e-03 -1.00e+00 -1.00e+00 -1.00e+00
49     ?    ?    ?    S      D 20180706 1121 01.596323 GAU 1.00e-03 -1.00e+00 -1.00e+00 -1.00e+00
49     ?    ?    ?    P      D 20180706 1121 01.406744 GAU 1.00e-03 -1.00e+00 -1.00e+00 -1.00e+00
31     ?    ?    ?    P      D 20180706 1121 01.295273 GAU 1.00e-03 -1.00e+00 -1.00e+00 -1.00e+00
46     ?    ?    ?    S      D 20180706 1121 01.563642 GAU 1.00e-03 -1.00e+00 -1.00e+00 -1.00e+00
46     ?    ?    ?    P      D 20180706 1121 01.395395 GAU 1.00e-03 -1.00e+00 -1.00e+00 -1.00e+00
54     ?    ?    ?    P      D 20180706 1121 01.387259 GAU 1.00e-03 -1.00e+00 -1.00e+00 -1.00e+00
11     ?    ?    ?    S      D 20180706 1121 01.381137 GAU 1.00e-03 -1.00e+00 -1.00e+00 -1.00e+00
11     ?    ?    ?    P      D 20180706 1121 01.287229 GAU 1.00e-03 -1.00e+00 -1.00e+00 -1.00e+00
29     ?    ?    ?    S      D 20180706 1121 01.504856 GAU 1.00e-03 -1.00e+00 -1.00e+00 -1.00e+00
29     ?    ?    ?    P      D 20180706 1121 01.356365 GAU 1.00e-03 -1.00e+00 -1.00e+00 -1.00e+00
27     ?    ?    ?    S      D 20180706 1121 01.594269 GAU 1.00e-03 -1.00e+00 -1.00e+00 -1.00e+00
27     ?    ?    ?    P      D 20180706 1121 01.399959 GAU 1.00e-03 -1.00e+00 -1.00e+00 -1.00e+00
65     ?    ?    ?    S      D 20180706 1121 01.487348 GAU 1.00e-03 -1.00e+00 -1.00e+00 -1.00e+00
65     ?    ?    ?    P      D 20180706 1121 01.350205 GAU 1.00e-03 -1.00e+00 -1.00e+00 -1.00e+00
47     ?    ?    ?    S      D 20180706 1121 01.541990 GAU 1.00e-03 -1.00e+00 -1.00e+00 -1.00e+00
47     ?    ?    ?    P      D 20180706 1121 01.384710 GAU 1.00e-03 -1.00e+00 -1.00e+00 -1.00e+00
75     ?    ?    ?    S      D 20180706 1121 01.541257 GAU 1.00e-03 -1.00e+00 -1.00e+00 -1.00e+00
75     ?    ?    ?    P      D 20180706 1121 01.381749 GAU 1.00e-03 -1.00e+00 -1.00e+00 -1.00e+00
20     ?    ?    ?    S      D 20180706 1121 01.543185 GAU 1.00e-03 -1.00e+00 -1.00e+00 -1.00e+00
20     ?    ?    ?    P      D 20180706 1121 01.378391 GAU 1.00e-03 -1.00e+00 -1.00e+00 -1.00e+00
86     ?    ?    ?    S      D 20180706 1121 01.570802 GAU 1.00e-03 -1.00e+00 -1.00e+00 -1.00e+00
86     ?    ?    ?    P      D 20180706 1121 01.391611 GAU 1.00e-03 -1.00e+00 -1.00e+00 -1.00e+00
69     ?    ?    ?    S      D 20180706 1121 01.528760 GAU 1.00e-03 -1.00e+00 -1.00e+00 -1.00e+00
69     ?    ?    ?    P      D 20180706 1121 01.373249 GAU 1.00e-03 -1.00e+00 -1.00e+00 -1.00e+00
87     ?    ?    ?    S      D 20180706 1121 01.498930 GAU 1.00e-03 -1.00e+00 -1.00e+00 -1.00e+00
87     ?    ?    ?    P      D 20180706 1121 01.354524 GAU 1.00e-03 -1.00e+00 -1.00e+00 -1.00e+00
100    ?    ?    ?    S      D 20180706 1121 01.546151 GAU 1.00e-03 -1.00e+00 -1.00e+00 -1.00e+00
100    ?    ?    ?    P      D 20180706 1121 01.383299 GAU 1.00e-03 -1.00e+00 -1.00e+00 -1.00e+00
16     ?    ?    ?    S      D 20180706 1121 01.495554 GAU 1.00e-03 -1.00e+00 -1.00e+00 -1.00e+00
16     ?    ?    ?    P      D 20180706 1121 01.354975 GAU 1.00e-03 -1.00e+00 -1.00e+00 -1.00e+00
44     ?    ?    ?    S      D 20180706 1121 01.608306 GAU 1.00e-03 -1.00e+00 -1.00e+00 -1.00e+00
44     ?    ?    ?    P      D 20180706 1121 01.419606 GAU 1.00e-03 -1.00e+00 -1.00e+00 -1.00e+00
57     ?    ?    ?    P      D 20180706 1121 01.289794 GAU 1.00e-03 -1.00e+00 -1.00e+00 -1.00e+00
28     ?    ?    ?    S      D 20180706 1121 01.511990 GAU 1.00e-03 -1.00e+00 -1.00e+00 -1.00e+00
28     ?    ?    ?    P      D 20180706 1121 01.361901 GAU 1.00e-03 -1.00e+00 -1.00e+00 -1.00e+00
67     ?    ?    ?    P      D 20180706 1121 01.429770 GAU 1.00e-03 -1.00e+00 -1.00e+00 -1.00e+00
60     ?    ?    ?    S      D 20180706 1121 01.685324 GAU 1.00e-03 -1.00e+00 -1.00e+00 -1.00e+00
60     ?    ?    ?    P      D 20180706 1121 01.455973 GAU 1.00e-03 -1.00e+00 -1.00e+00 -1.00e+00
73     ?    ?    ?    S      D 20180706 1121 01.647147 GAU 1.00e-03 -1.00e+00 -1.00e+00 -1.00e+00
73     ?    ?    ?    P      D 20180706 1121 01.439323 GAU 1.00e-03 -1.00e+00 -1.00e+00 -1.00e+00
21     ?    ?    ?    S      D 20180706 1121 01.494048 GAU 1.00e-03 -1.00e+00 -1.00e+00 -1.00e+00
21     ?    ?    ?    P      D 20180706 1121 01.350069 GAU 1.00e-03 -1.00e+00 -1.00e+00 -1.00e+00
17     ?    ?    ?    S      D 20180706 1121 01.477364 GAU 1.00e-03 -1.00e+00 -1.00e+00 -1.00e+00
17     ?    ?    ?    P      D 20180706 1121 01.345289 GAU 1.00e-03 -1.00e+00 -1.00e+00 -1.00e+00
62     ?    ?    ?    S      D 20180706 1121 01.592542 GAU 1.00e-03 -1.00e+00 -1.00e+00 -1.00e+00
62     ?    ?    ?    P      D 20180706 1121 01.402158 GAU 1.00e-03 -1.00e+00 -1.00e+00 -1.00e+00
68     ?    ?    ?    P      D 20180706 1121 01.399447 GAU 1.00e-03 -1.00e+00 -1.00e+00 -1.00e+00
63     ?    ?    ?    S      D 20180706 1121 01.539657 GAU 1.00e-03 -1.00e+00 -1.00e+00 -1.00e+00
63     ?    ?    ?    P      D 20180706 1121 01.379088 GAU 1.00e-03 -1.00e+00 -1.00e+00 -1.00e+00
85     ?    ?    ?    S      D 20180706 1121 01.634205 GAU 1.00e-03 -1.00e+00 -1.00e+00 -1.00e+00
85     ?    ?    ?    P      D 20180706 1121 01.420034 GAU 1.00e-03 -1.00e+00 -1.00e+00 -1.00e+00
94     ?    ?    ?    P      D 20180706 1121 01.418304 GAU 1.00e-03 -1.00e+00 -1.00e+00 -1.00e+00
70     ?    ?    ?    S      D 20180706 1121 01.490865 GAU 1.00e-03 -1.00e+00 -1.00e+00 -1.00e+00
70     ?    ?    ?    P      D 20180706 1121 01.352996 GAU 1.00e-03 -1.00e+00 -1.00e+00 -1.00e+00
92     ?    ?    ?    P      D 20180706 1121 01.477429 GAU 1.00e-03 -1.00e+00 -1.00e+00 -1.00e+00
14     ?    ?    ?    S      D 20180706 1121 01.561839 GAU 1.00e-03 -1.00e+00 -1.00e+00 -1.00e+00
14     ?    ?    ?    P      D 20180706 1121 01.389911 GAU 1.00e-03 -1.00e+00 -1.00e+00 -1.00e+00
109    ?    ?    ?    P      D 20180706 1121 01.299642 GAU 1.00e-03 -1.00e+00 -1.00e+00 -1.00e+00
58     ?    ?    ?    S      D 20180706 1121 01.340891 GAU 1.00e-03 -1.00e+00 -1.00e+00 -1.00e+00
58     ?    ?    ?    P      D 20180706 1121 01.267435 GAU 1.00e-03 -1.00e+00 -1.00e+00 -1.00e+00
4      ?    ?    ?    S      D 20180706 1121 01.506519 GAU 1.00e-03 -1.00e+00 -1.00e+00 -1.00e+00
4      ?    ?    ?    P      D 20180706 1121 01.353134 GAU 1.00e-03 -1.00e+00 -1.00e+00 -1.00e+00
74     ?    ?    ?    S      D 20180706 1121 01.585710 GAU 1.00e-03 -1.00e+00 -1.00e+00 -1.00e+00
74     ?    ?    ?    P      D 20180706 1121 01.404065 GAU 1.00e-03 -1.00e+00 -1.00e+00 -1.00e+00
52     ?    ?    ?    S      D 20180706 1121 01.449939 GAU 1.00e-03 -1.00e+00 -1.00e+00 -1.00e+00
52     ?    ?    ?    P      D 20180706 1121 01.329777 GAU 1.00e-03 -1.00e+00 -1.00e+00 -1.00e+00
59     ?    ?    ?    P      D 20180706 1121 01.247568 GAU 1.00e-03 -1.00e+00 -1.00e+00 -1.00e+00
32     ?    ?    ?    P      D 20180706 1121 01.275641 GAU 1.00e-03 -1.00e+00 -1.00e+00 -1.00e+00
77     ?    ?    ?    S      D 20180706 1121 01.474725 GAU 1.00e-03 -1.00e+00 -1.00e+00 -1.00e+00
77     ?    ?    ?    P      D 20180706 1121 01.347247 GAU 1.00e-03 -1.00e+00 -1.00e+00 -1.00e+00
45     ?    ?    ?    P      D 20180706 1121 01.403861 GAU 1.00e-03 -1.00e+00 -1.00e+00 -1.00e+00
96     ?    ?    ?    P      D 20180706 1121 01.388494 GAU 1.00e-03 -1.00e+00 -1.00e+00 -1.00e+00
72     ?    ?    ?    S      D 20180706 1121 01.706700 GAU 1.00e-03 -1.00e+00 -1.00e+00 -1.00e+00
72     ?    ?    ?    P      D 20180706 1121 01.465346 GAU 1.00e-03 -1.00e+00 -1.00e+00 -1.00e+00
55     ?    ?    ?    S      D 20180706 1121 01.472817 GAU 1.00e-03 -1.00e+00 -1.00e+00 -1.00e+00
55     ?    ?    ?    P      D 20180706 1121 01.336726 GAU 1.00e-03 -1.00e+00 -1.00e+00 -1.00e+00
99     ?    ?    ?    S      D 20180706 1121 01.565581 GAU 1.00e-03 -1.00e+00 -1.00e+00 -1.00e+00
99     ?    ?    ?    P      D 20180706 1121 01.390869 GAU 1.00e-03 -1.00e+00 -1.00e+00 -1.00e+00
53     ?    ?    ?    P      D 20180706 1121 01.307026 GAU 1.00e-03 -1.00e+00 -1.00e+00 -1.00e+00
39     ?    ?    ?    S      D 20180706 1121 01.473449 GAU 1.00e-03 -1.00e+00 -1.00e+00 -1.00e+00
39     ?    ?    ?    P      D 20180706 1121 01.346852 GAU 1.00e-03 -1.00e+00 -1.00e+00 -1.00e+00
15     ?    ?    ?    S      D 20180706 1121 01.513528 GAU 1.00e-03 -1.00e+00 -1.00e+00 -1.00e+00
15     ?    ?    ?    P      D 20180706 1121 01.365439 GAU 1.00e-03 -1.00e+00 -1.00e+00 -1.00e+00
71     ?    ?    ?    P      D 20180706 1121 01.337099 GAU 1.00e-03 -1.00e+00 -1.00e+00 -1.00e+00
88     ?    ?    ?    S      D 20180706 1121 01.460786 GAU 1.00e-03 -1.00e+00 -1.00e+00 -1.00e+00
88     ?    ?    ?    P      D 20180706 1121 01.335521 GAU 1.00e-03 -1.00e+00 -1.00e+00 -1.00e+00
25     ?    ?    ?    S      D 20180706 1121 01.412599 GAU 1.00e-03 -1.00e+00 -1.00e+00 -1.00e+00
25     ?    ?    ?    P      D 20180706 1121 01.306477 GAU 1.00e-03 -1.00e+00 -1.00e+00 -1.00e+00
50     ?    ?    ?    S      D 20180706 1121 01.548819 GAU 1.00e-03 -1.00e+00 -1.00e+00 -1.00e+00
50     ?    ?    ?    P      D 20180706 1121 01.380767 GAU 1.00e-03 -1.00e+00 -1.00e+00 -1.00e+00
76     ?    ?    ?    S      D 20180706 1121 01.506504 GAU 1.00e-03 -1.00e+00 -1.00e+00 -1.00e+00
76     ?    ?    ?    P      D 20180706 1121 01.362852 GAU 1.00e-03 -1.00e+00 -1.00e+00 -1.00e+00
97     ?    ?    ?    P      D 20180706 1121 01.379907 GAU 1.00e-03 -1.00e+00 -1.00e+00 -1.00e+00
30     ?    ?    ?    S      D 20180706 1121 01.451427 GAU 1.00e-03 -1.00e+00 -1.00e+00 -1.00e+00
30     ?    ?    ?    P      D 20180706 1121 01.327397 GAU 1.00e-03 -1.00e+00 -1.00e+00 -1.00e+00
101    ?    ?    ?    S      D 20180706 1121 01.528709 GAU 1.00e-03 -1.00e+00 -1.00e+00 -1.00e+00
101    ?    ?    ?    P      D 20180706 1121 01.371691 GAU 1.00e-03 -1.00e+00 -1.00e+00 -1.00e+00
90     ?    ?    ?    S      D 20180706 1121 01.399520 GAU 1.00e-03 -1.00e+00 -1.00e+00 -1.00e+00
90     ?    ?    ?    P      D 20180706 1121 01.302768 GAU 1.00e-03 -1.00e+00 -1.00e+00 -1.00e+00
51     ?    ?    ?    S      D 20180706 1121 01.501170 GAU 1.00e-03 -1.00e+00 -1.00e+00 -1.00e+00
51     ?    ?    ?    P      D 20180706 1121 01.357779 GAU 1.00e-03 -1.00e+00 -1.00e+00 -1.00e+00
19     ?    ?    ?    P      D 20180706 1121 01.410851 GAU 1.00e-03 -1.00e+00 -1.00e+00 -1.00e+00
93     ?    ?    ?    S      D 20180706 1121 01.660017 GAU 1.00e-03 -1.00e+00 -1.00e+00 -1.00e+00
93     ?    ?    ?    P      D 20180706 1121 01.443799 GAU 1.00e-03 -1.00e+00 -1.00e+00 -1.00e+00
98     ?    ?    ?    S      D 20180706 1121 01.620090 GAU 1.00e-03 -1.00e+00 -1.00e+00 -1.00e+00
98     ?    ?    ?    P      D 20180706 1121 01.420654 GAU 1.00e-03 -1.00e+00 -1.00e+00 -1.00e+00
56     ?    ?    ?    S      D 20180706 1121 01.423974 GAU 1.00e-03 -1.00e+00 -1.00e+00 -1.00e+00
56     ?    ?    ?    P      D 20180706 1121 01.312400 GAU 1.00e-03 -1.00e+00 -1.00e+00 -1.00e+00
95     ?    ?    ?    P      D 20180706 1121 01.401180 GAU 1.00e-03 -1.00e+00 -1.00e+00 -1.00e+00
107    ?    ?    ?    S      D 20180706 1121 01.455926 GAU 1.00e-03 -1.00e+00 -1.00e+00 -1.00e+00
107    ?    ?    ?    P      D 20180706 1121 01.329520 GAU 1.00e-03 -1.00e+00 -1.00e+00 -1.00e+00
103    ?    ?    ?    S      D 20180706 1121 01.519475 GAU 1.00e-03 -1.00e+00 -1.00e+00 -1.00e+00
103    ?    ?    ?    P      D 20180706 1121 01.361675 GAU 1.00e-03 -1.00e+00 -1.00e+00 -1.00e+00
108    ?    ?    ?    S      D 20180706 1121 01.426279 GAU 1.00e-03 -1.00e+00 -1.00e+00 -1.00e+00
108    ?    ?    ?    P      D 20180706 1121 01.313919 GAU 1.00e-03 -1.00e+00 -1.00e+00 -1.00e+00
41     ?    ?    ?    S      D 20180706 1121 01.242516 GAU 1.00e-03 -1.00e+00 -1.00e+00 -1.00e+00
41     ?    ?    ?    P      D 20180706 1121 01.242833 GAU 1.00e-03 -1.00e+00 -1.00e+00 -1.00e+00
