<?xml version='1.0' encoding='utf-8'?>
<q:quakeml xmlns:ns0="MICROQUAKE" xmlns:q="http://quakeml.org/xmlns/quakeml/1.2" xmlns="http://quakeml.org/xmlns/bed/1.2">
  <eventParameters publicID="smi:local/7501f45a-1769-43c4-9875-96357411ba70">
    <event publicID="smi:local/72c00f89-4604-49e6-bdba-21a329256178">
      <preferredOriginID>smi:local/b773d7f2-3442-44a6-9d89-e123cc7d3f9e</preferredOriginID>
      <preferredMagnitudeID>smi:local/5d3772ae-410e-4d82-9a2f-357664ff3825</preferredMagnitudeID>
      <type>earthquake</type>
      <origin publicID="smi:local/fc693c3b-70a6-4bca-9259-c656633f059e">
        <time>
          <value>2018-07-06T11:21:01.243255Z</value>
        </time>
        <latitude/>
        <longitude/>
        <evaluationMode>manual</evaluationMode>
        <evaluationStatus>reviewed</evaluationStatus>
        <arrival publicID="smi:local/f45c3836-fc69-4657-b2e9-12fe28bc4992">
          <pickID>smi:local/f2313026-d9f0-4916-a76c-f6ddabbcf924</pickID>
          <phase>P</phase>
          <azimuth>149.9001826502962</azimuth>
          <distance>155.50583043771206</distance>
          <takeoffAngle>
            <value>83.72384391881972</value>
          </takeoffAngle>
        </arrival>
        <arrival publicID="smi:local/55938bd1-710b-419a-b7a1-dbde9b12ca2b">
          <pickID>smi:local/13874c2f-13ee-4287-90a2-7becc593d10d</pickID>
          <phase>S</phase>
          <azimuth>149.9001826502962</azimuth>
          <distance>155.50583043771206</distance>
          <takeoffAngle>
            <value>83.72384391881972</value>
          </takeoffAngle>
        </arrival>
        <arrival publicID="smi:local/168ae072-c6b7-4fb0-bfce-4af390fb9465">
          <pickID>smi:local/2912e9ce-29e7-46cc-bd17-4ba176fd80c8</pickID>
          <phase>P</phase>
          <azimuth>-170.21242140222492</azimuth>
          <distance>382.5715619331892</distance>
          <takeoffAngle>
            <value>79.76158784163822</value>
          </takeoffAngle>
        </arrival>
        <arrival publicID="smi:local/fd7f7c82-78a1-4dee-be3c-1f8fb008357d">
          <pickID>smi:local/63c172c4-29ea-431c-93ce-4969275fb487</pickID>
          <phase>S</phase>
          <azimuth>-170.21242140222492</azimuth>
          <distance>382.5715619331892</distance>
          <takeoffAngle>
            <value>79.76158784163822</value>
          </takeoffAngle>
        </arrival>
        <arrival publicID="smi:local/3611a620-aa66-4d7c-9712-d88183c8e50f">
          <pickID>smi:local/8e2e9126-b884-4a1e-abef-ee49704183c2</pickID>
          <phase>P</phase>
          <azimuth>155.9715274803116</azimuth>
          <distance>399.3673776647599</distance>
          <takeoffAngle>
            <value>42.36402091408929</value>
          </takeoffAngle>
        </arrival>
        <arrival publicID="smi:local/b22031ac-c373-456e-9ede-8d1a0e278d37">
          <pickID>smi:local/272185fc-9232-4d7e-a9b1-f71d36aaef6a</pickID>
          <phase>S</phase>
          <azimuth>155.9715274803116</azimuth>
          <distance>399.3673776647599</distance>
          <takeoffAngle>
            <value>42.36402091408929</value>
          </takeoffAngle>
        </arrival>
        <arrival publicID="smi:local/7d0dc5a6-9e98-4490-adbe-8e343f55f2cd">
          <pickID>smi:local/c1ba8fda-d2b7-4075-b420-266d1176bb42</pickID>
          <phase>P</phase>
          <azimuth>155.54352861171185</azimuth>
          <distance>507.0948377556425</distance>
          <takeoffAngle>
            <value>31.994179749609962</value>
          </takeoffAngle>
        </arrival>
        <arrival publicID="smi:local/74983307-3bd0-4d9a-816c-bc2f4a142ac9">
          <pickID>smi:local/97ca0a57-0f6e-43c2-bab6-4d27267052df</pickID>
          <phase>S</phase>
          <azimuth>155.54352861171185</azimuth>
          <distance>507.0948377556425</distance>
          <takeoffAngle>
            <value>31.994179749609962</value>
          </takeoffAngle>
        </arrival>
        <arrival publicID="smi:local/c78fc411-527c-4f91-898a-2125049993d6">
          <pickID>smi:local/6cd3726b-093e-48bd-9d94-2652abda42f3</pickID>
          <phase>P</phase>
          <azimuth>151.85506536409846</azimuth>
          <distance>579.0570415059575</distance>
          <takeoffAngle>
            <value>69.81169973710614</value>
          </takeoffAngle>
        </arrival>
        <arrival publicID="smi:local/879dc240-5419-4ef2-ac0f-02369fd9e1cc">
          <pickID>smi:local/ff0d5aac-ecf0-4e4e-8019-b89eb1c91821</pickID>
          <phase>S</phase>
          <azimuth>151.85506536409846</azimuth>
          <distance>579.0570415059575</distance>
          <takeoffAngle>
            <value>69.81169973710614</value>
          </takeoffAngle>
        </arrival>
        <arrival publicID="smi:local/1d0f8c83-215f-4fff-ae2a-0808b87ffc44">
          <pickID>smi:local/cd3ce313-d23f-4465-8aab-053dc9a9d2cd</pickID>
          <phase>P</phase>
          <azimuth>-157.57140728431025</azimuth>
          <distance>653.6038137890731</distance>
          <takeoffAngle>
            <value>83.62791973566688</value>
          </takeoffAngle>
        </arrival>
        <arrival publicID="smi:local/78759734-9c8b-45c6-a672-5584b1ea0c14">
          <pickID>smi:local/fa38b410-7cd3-46a3-92f8-58a3d1e29cab</pickID>
          <phase>S</phase>
          <azimuth>-157.57140728431025</azimuth>
          <distance>653.6038137890731</distance>
          <takeoffAngle>
            <value>83.62791973566688</value>
          </takeoffAngle>
        </arrival>
        <arrival publicID="smi:local/f2fbdbc4-8ebe-4fc4-a469-2c69170a361e">
          <pickID>smi:local/eacc37b8-9ce3-45a3-b9aa-9276f9b82e30</pickID>
          <phase>P</phase>
          <azimuth>155.1545534089962</azimuth>
          <distance>620.9527874553679</distance>
          <takeoffAngle>
            <value>25.587512754521825</value>
          </takeoffAngle>
        </arrival>
        <arrival publicID="smi:local/7b828c71-6b33-4ac7-ac7b-dc8135d4e11a">
          <pickID>smi:local/f810113f-3eb5-43fd-865b-035b8c7dd74b</pickID>
          <phase>S</phase>
          <azimuth>155.1545534089962</azimuth>
          <distance>620.9527874553679</distance>
          <takeoffAngle>
            <value>25.587512754521825</value>
          </takeoffAngle>
        </arrival>
        <arrival publicID="smi:local/23f849c3-ba06-4251-9616-b8d626a02e41">
          <pickID>smi:local/1749c109-77dd-41bd-be00-d492400422dd</pickID>
          <phase>P</phase>
          <azimuth>158.30831982487055</azimuth>
          <distance>683.5324850908839</distance>
          <takeoffAngle>
            <value>50.832595983002996</value>
          </takeoffAngle>
        </arrival>
        <arrival publicID="smi:local/2d51ea28-7b49-4178-95fc-55de4a25bd29">
          <pickID>smi:local/f5ece634-1bb1-41a0-a18d-e8fed7671f8a</pickID>
          <phase>S</phase>
          <azimuth>158.30831982487055</azimuth>
          <distance>683.5324850908839</distance>
          <takeoffAngle>
            <value>50.832595983002996</value>
          </takeoffAngle>
        </arrival>
        <arrival publicID="smi:local/3c905924-b961-4831-88c9-755a4dc775be">
          <pickID>smi:local/4db8fc8a-9f4a-45b6-86d3-e015be6c0129</pickID>
          <phase>P</phase>
          <azimuth>14.4897636851287</azimuth>
          <distance>659.6400248590894</distance>
          <takeoffAngle>
            <value>59.98575216851211</value>
          </takeoffAngle>
        </arrival>
        <arrival publicID="smi:local/8f6fb066-2c6c-4e30-9b79-22e263b8e865">
          <pickID>smi:local/92a26980-6fbd-47ae-9cc0-84cbf201278e</pickID>
          <phase>S</phase>
          <azimuth>14.4897636851287</azimuth>
          <distance>659.6400248590894</distance>
          <takeoffAngle>
            <value>59.98575216851211</value>
          </takeoffAngle>
        </arrival>
        <arrival publicID="smi:local/29978796-6d65-40c1-9d56-2901e37baf7f">
          <pickID>smi:local/c951c7c6-50b2-4aed-8cc6-a551caf37f41</pickID>
          <phase>P</phase>
          <azimuth>82.34714708501383</azimuth>
          <distance>694.666738351261</distance>
          <takeoffAngle>
            <value>38.99684748545437</value>
          </takeoffAngle>
        </arrival>
        <arrival publicID="smi:local/a07a323a-752c-4e38-91b2-bc44156a6aca">
          <pickID>smi:local/82d4cce0-e648-4233-8bfb-45f2cc6fa726</pickID>
          <phase>S</phase>
          <azimuth>82.34714708501383</azimuth>
          <distance>694.666738351261</distance>
          <takeoffAngle>
            <value>38.99684748545437</value>
          </takeoffAngle>
        </arrival>
        <arrival publicID="smi:local/8815e8de-c63d-4b83-8ae7-a8bda6d3dc09">
          <pickID>smi:local/ca6f3e1a-3e69-4c97-a9f7-c2cfc8661523</pickID>
          <phase>P</phase>
          <azimuth>153.09213192668645</azimuth>
          <distance>743.0408786576019</distance>
          <takeoffAngle>
            <value>71.3988034095997</value>
          </takeoffAngle>
        </arrival>
        <arrival publicID="smi:local/93457d59-b439-4b80-aa39-0c7687a93e9f">
          <pickID>smi:local/04e1203c-0811-463f-8987-ab2de25997d9</pickID>
          <phase>S</phase>
          <azimuth>153.09213192668645</azimuth>
          <distance>743.0408786576019</distance>
          <takeoffAngle>
            <value>71.3988034095997</value>
          </takeoffAngle>
        </arrival>
        <arrival publicID="smi:local/808d73af-b4b0-404a-a2be-ba695f9e5a1f">
          <pickID>smi:local/dfdbf574-9055-4af0-bfe2-e59f4fe0a0ef</pickID>
          <phase>P</phase>
          <azimuth>178.80780046225925</azimuth>
          <distance>740.7486688479438</distance>
          <takeoffAngle>
            <value>87.71606822400598</value>
          </takeoffAngle>
        </arrival>
        <arrival publicID="smi:local/93cdb5ff-f009-4482-a6a2-3ee06b36c807">
          <pickID>smi:local/d019d14e-f126-4d54-ab74-bc3e07363d2f</pickID>
          <phase>S</phase>
          <azimuth>178.80780046225925</azimuth>
          <distance>740.7486688479438</distance>
          <takeoffAngle>
            <value>87.71606822400598</value>
          </takeoffAngle>
        </arrival>
        <arrival publicID="smi:local/01c6d566-2b87-490b-ba8d-ff1cb1682b11">
          <pickID>smi:local/7ab6fb84-04bf-42cd-af16-3f6cf3986c53</pickID>
          <phase>P</phase>
          <azimuth>154.6557820335914</azimuth>
          <distance>740.2267714874241</distance>
          <takeoffAngle>
            <value>21.221107502196674</value>
          </takeoffAngle>
        </arrival>
        <arrival publicID="smi:local/1e5e20f7-0bb8-4d23-8a70-ab2676eb6eb0">
          <pickID>smi:local/b20850bb-be44-477d-bb37-55df42230d55</pickID>
          <phase>S</phase>
          <azimuth>154.6557820335914</azimuth>
          <distance>740.2267714874241</distance>
          <takeoffAngle>
            <value>21.221107502196674</value>
          </takeoffAngle>
        </arrival>
        <arrival publicID="smi:local/b9f9e0d3-eea7-45f4-936b-5a09016e71a8">
          <pickID>smi:local/d0312d50-dbb9-448c-b2b8-36d921dfab4b</pickID>
          <phase>P</phase>
          <azimuth>13.332163841276731</azimuth>
          <distance>739.2821549201221</distance>
          <takeoffAngle>
            <value>50.57588519790605</value>
          </takeoffAngle>
        </arrival>
        <arrival publicID="smi:local/51f86ebf-6e10-445d-8ab8-de3a72c08216">
          <pickID>smi:local/110f3d77-3aff-415b-be50-e5815f914662</pickID>
          <phase>S</phase>
          <azimuth>13.332163841276731</azimuth>
          <distance>739.2821549201221</distance>
          <takeoffAngle>
            <value>50.57588519790605</value>
          </takeoffAngle>
        </arrival>
        <arrival publicID="smi:local/bc8575cd-8c01-45f4-9ef1-2818dec9902c">
          <pickID>smi:local/6e13cafa-d052-4ea5-b862-0f0108f65eff</pickID>
          <phase>P</phase>
          <azimuth>-144.39617992339473</azimuth>
          <distance>809.4609317317297</distance>
          <takeoffAngle>
            <value>84.39925641540219</value>
          </takeoffAngle>
        </arrival>
        <arrival publicID="smi:local/a13f28a9-22b5-4df0-b474-3691acececd0">
          <pickID>smi:local/9106718b-8971-4306-84b6-ca1572702c2b</pickID>
          <phase>S</phase>
          <azimuth>-144.39617992339473</azimuth>
          <distance>809.4609317317297</distance>
          <takeoffAngle>
            <value>84.39925641540219</value>
          </takeoffAngle>
        </arrival>
        <arrival publicID="smi:local/d50f5808-0797-418c-b1ce-fbcf350c6448">
          <pickID>smi:local/d35c0b3c-1e95-4d0f-9696-bd17e388495a</pickID>
          <phase>P</phase>
          <azimuth>82.35716493008618</azimuth>
          <distance>783.3795297689193</distance>
          <takeoffAngle>
            <value>33.943716764931246</value>
          </takeoffAngle>
        </arrival>
        <arrival publicID="smi:local/9484f4b7-17ab-49fb-aa9e-62ffc8f9e81a">
          <pickID>smi:local/32d7aa6e-3591-4468-be73-79852a40cd29</pickID>
          <phase>S</phase>
          <azimuth>82.35716493008618</azimuth>
          <distance>783.3795297689193</distance>
          <takeoffAngle>
            <value>33.943716764931246</value>
          </takeoffAngle>
        </arrival>
        <arrival publicID="smi:local/ae659410-71e2-4b6c-b0b6-7b2da664469a">
          <pickID>smi:local/f1266207-df8d-4cb4-a99e-34a1b5e2979a</pickID>
          <phase>P</phase>
          <azimuth>128.89887408702145</azimuth>
          <distance>772.3279235918061</distance>
          <takeoffAngle>
            <value>65.08607189057051</value>
          </takeoffAngle>
        </arrival>
        <arrival publicID="smi:local/96b134c3-1a83-4c11-a203-c66420356f38">
          <pickID>smi:local/26f5b41d-a99f-441a-b412-68d2f60231fd</pickID>
          <phase>S</phase>
          <azimuth>128.89887408702145</azimuth>
          <distance>772.3279235918061</distance>
          <takeoffAngle>
            <value>65.08607189057051</value>
          </takeoffAngle>
        </arrival>
        <arrival publicID="smi:local/529fcd9d-3ddd-4fb7-a157-8d0d09929f41">
          <pickID>smi:local/aabbed11-f763-47e9-8a0e-b377b815babe</pickID>
          <phase>P</phase>
          <azimuth>164.52558094565825</azimuth>
          <distance>845.0925684980356</distance>
          <takeoffAngle>
            <value>38.137679995029025</value>
          </takeoffAngle>
        </arrival>
        <arrival publicID="smi:local/93b13aa6-521b-4d93-ae97-74954edf47fc">
          <pickID>smi:local/6798ceca-137c-4f38-94cf-2457b25b4ca4</pickID>
          <phase>S</phase>
          <azimuth>164.52558094565825</azimuth>
          <distance>845.0925684980356</distance>
          <takeoffAngle>
            <value>38.137679995029025</value>
          </takeoffAngle>
        </arrival>
        <arrival publicID="smi:local/db30ffb8-1ffb-4215-a9a8-110616ea0005">
          <pickID>smi:local/596098aa-5c4a-4134-8c72-c2b6aff405d2</pickID>
          <phase>P</phase>
          <azimuth>12.305176343776077</azimuth>
          <distance>827.2422944838136</distance>
          <takeoffAngle>
            <value>43.598494962755446</value>
          </takeoffAngle>
        </arrival>
        <arrival publicID="smi:local/a9dd3223-32b7-4583-b2aa-5566fc98f91d">
          <pickID>smi:local/1d2272eb-f102-429d-9121-94036774527f</pickID>
          <phase>S</phase>
          <azimuth>12.305176343776077</azimuth>
          <distance>827.2422944838136</distance>
          <takeoffAngle>
            <value>43.598494962755446</value>
          </takeoffAngle>
        </arrival>
        <arrival publicID="smi:local/f243cfb7-7675-4d2f-9d2b-9881287d1460">
          <pickID>smi:local/7d694774-ead3-476c-962d-7f3d5cea7239</pickID>
          <phase>P</phase>
          <azimuth>156.9091399582429</azimuth>
          <distance>862.6462943986694</distance>
          <takeoffAngle>
            <value>60.44676673582451</value>
          </takeoffAngle>
        </arrival>
        <arrival publicID="smi:local/2c855459-733c-4101-b7e6-1d92e3c93420">
          <pickID>smi:local/56a97543-2ae9-498c-9f8e-e0fa96b5861d</pickID>
          <phase>S</phase>
          <azimuth>156.9091399582429</azimuth>
          <distance>862.6462943986694</distance>
          <takeoffAngle>
            <value>60.44676673582451</value>
          </takeoffAngle>
        </arrival>
        <arrival publicID="smi:local/19f2d3d2-359b-4938-a266-fe26f8d58f27">
          <pickID>smi:local/47295b3e-9c18-43dd-90be-ad11f71dee32</pickID>
          <phase>P</phase>
          <azimuth>128.89887408702145</azimuth>
          <distance>846.5192387415839</distance>
          <takeoffAngle>
            <value>55.838158551728235</value>
          </takeoffAngle>
        </arrival>
        <arrival publicID="smi:local/a6de43f5-a106-43ad-bb58-a4c643d02824">
          <pickID>smi:local/bc228536-c1f7-4c7c-a612-1fb04ad4cc6d</pickID>
          <phase>S</phase>
          <azimuth>128.89887408702145</azimuth>
          <distance>846.5192387415839</distance>
          <takeoffAngle>
            <value>55.838158551728235</value>
          </takeoffAngle>
        </arrival>
        <arrival publicID="smi:local/7589da5b-a8a5-4dfd-883d-b31fcaff13e4">
          <pickID>smi:local/d5871c87-54fe-4610-b7af-5d4f397ceacb</pickID>
          <phase>P</phase>
          <azimuth>82.36270272178878</azimuth>
          <distance>859.6650625333027</distance>
          <takeoffAngle>
            <value>30.609076284446555</value>
          </takeoffAngle>
        </arrival>
        <arrival publicID="smi:local/850968ea-a8ff-4f3d-b1b5-ecaf04816d48">
          <pickID>smi:local/60af86d2-a0be-4cf9-8f8b-a35ba210ec42</pickID>
          <phase>S</phase>
          <azimuth>82.36270272178878</azimuth>
          <distance>859.6650625333027</distance>
          <takeoffAngle>
            <value>30.609076284446555</value>
          </takeoffAngle>
        </arrival>
        <arrival publicID="smi:local/6d8d5c63-abbc-4984-b1d0-7364f48aebe4">
          <pickID>smi:local/a4e9c8cb-da4b-431d-a762-5557945cfbbf</pickID>
          <phase>P</phase>
          <azimuth>55.835664239909896</azimuth>
          <distance>877.5193937251377</distance>
          <takeoffAngle>
            <value>65.2526846359882</value>
          </takeoffAngle>
        </arrival>
        <arrival publicID="smi:local/58facba8-d5f6-4ecf-a763-6cc037aa200e">
          <pickID>smi:local/e5ee5e95-e2dc-4d8f-a596-209e76275ed0</pickID>
          <phase>S</phase>
          <azimuth>55.835664239909896</azimuth>
          <distance>877.5193937251377</distance>
          <takeoffAngle>
            <value>65.2526846359882</value>
          </takeoffAngle>
        </arrival>
        <arrival publicID="smi:local/99329a0b-d3c6-4c52-a654-c34c835ca0bd">
          <pickID>smi:local/955fa18f-5308-4b63-8198-3779beaa8ab5</pickID>
          <phase>P</phase>
          <azimuth>154.14830884040762</azimuth>
          <distance>862.5918426403507</distance>
          <takeoffAngle>
            <value>18.077920343088323</value>
          </takeoffAngle>
        </arrival>
        <arrival publicID="smi:local/d046a61c-4b1f-453b-b13b-de99f950ea4c">
          <pickID>smi:local/43a1fbc5-d695-43ce-ad07-8219cb40c494</pickID>
          <phase>S</phase>
          <azimuth>154.14830884040762</azimuth>
          <distance>862.5918426403507</distance>
          <takeoffAngle>
            <value>18.077920343088323</value>
          </takeoffAngle>
        </arrival>
        <arrival publicID="smi:local/fe3ac36b-782c-48e1-b618-09334179cafc">
          <pickID>smi:local/b55f9f4e-a398-46cd-9f44-1f054844cb7d</pickID>
          <phase>P</phase>
          <azimuth>80.92203691837597</azimuth>
          <distance>917.0779697659239</distance>
          <takeoffAngle>
            <value>71.49291743460111</value>
          </takeoffAngle>
        </arrival>
        <arrival publicID="smi:local/c258c98c-791a-431a-a087-cb96559124d3">
