<?xml version='1.0' encoding='utf-8'?>
<q:quakeml xmlns:ns0="MICROQUAKE" xmlns:q="http://quakeml.org/xmlns/quakeml/1.2" xmlns="http://quakeml.org/xmlns/bed/1.2">
  <eventParameters publicID="smi:local/41c07ca6-d13b-4cce-812e-1501742c998f">
    <event publicID="smi:local/4389e175-3a87-4a5a-906d-4bf454633a27">
      <preferredOriginID>smi:local/a41439dd-e375-46d4-9e1f-3c39f2a209f0</preferredOriginID>
      <preferredMagnitudeID>smi:local/3ba730e4-368b-4c4e-94bf-849417064dcd</preferredMagnitudeID>
      <type>earthquake</type>
      <origin publicID="smi:local/3ca4a6cd-8420-49d3-bbe2-a82403a12944">
        <time>
          <value>2018-04-14T19:44:22.166205Z</value>
        </time>
        <latitude/>
        <longitude/>
        <evaluationMode>manual</evaluationMode>
        <evaluationStatus>reviewed</evaluationStatus>
        <arrival publicID="smi:local/0a05e2e4-f22f-46ee-ab11-214fb2b63701">
          <pickID>smi:local/ef6430d8-edf3-4500-a574-f79a95153a77</pickID>
          <phase>P</phase>
          <azimuth>178.2614948939772</azimuth>
          <distance>371.87837648889405</distance>
          <takeoffAngle>
            <value>35.67789585095657</value>
          </takeoffAngle>
        </arrival>
        <arrival publicID="smi:local/bba09f22-052a-4e31-9893-428b51171092">
          <pickID>smi:local/9de46277-9c33-473e-87e3-6a281cf0ab35</pickID>
          <phase>S</phase>
          <azimuth>178.2614948939772</azimuth>
          <distance>371.87837648889405</distance>
          <takeoffAngle>
            <value>35.67789585095657</value>
          </takeoffAngle>
        </arrival>
        <arrival publicID="smi:local/45211780-a07e-40c0-a12a-52e3ff06e6ed">
          <pickID>smi:local/37d37d9e-a642-446e-98fd-4eedb98bdece</pickID>
          <phase>P</phase>
          <azimuth>177.8136319247351</azimuth>
          <distance>487.4098303277522</distance>
          <takeoffAngle>
            <value>26.269817796789784</value>
          </takeoffAngle>
        </arrival>
        <arrival publicID="smi:local/918b6bb1-d35c-4085-aa89-56d196d0a243">
          <pickID>smi:local/f4d49ee9-83ed-45a4-8ddb-9e9dcd400f89</pickID>
          <phase>S</phase>
          <azimuth>177.8136319247351</azimuth>
          <distance>487.4098303277522</distance>
          <takeoffAngle>
            <value>26.269817796789784</value>
          </takeoffAngle>
        </arrival>
        <arrival publicID="smi:local/a2d11f73-1d33-4958-a528-e1d921afa1b2">
          <pickID>smi:local/cc57ba70-4d2c-4bcb-a8cf-fac54c858a1d</pickID>
          <phase>P</phase>
          <azimuth>161.1894389558746</azimuth>
          <distance>518.6522183503711</distance>
          <takeoffAngle>
            <value>66.49663777320924</value>
          </takeoffAngle>
        </arrival>
        <arrival publicID="smi:local/8e06d16e-54bb-47b6-803f-db28a411066b">
          <pickID>smi:local/6c777801-c30b-4c36-9446-9c0757883a3a</pickID>
          <phase>S</phase>
          <azimuth>161.1894389558746</azimuth>
          <distance>518.6522183503711</distance>
          <takeoffAngle>
            <value>66.49663777320924</value>
          </takeoffAngle>
        </arrival>
        <arrival publicID="smi:local/29273289-602f-4727-99f6-d4e1e2b88b60">
          <pickID>smi:local/0414cabe-e9bf-4db7-bbea-384fff19fe5d</pickID>
          <phase>P</phase>
          <azimuth>177.41441216878133</azimuth>
          <distance>606.2916909377406</distance>
          <takeoffAngle>
            <value>20.727237535437744</value>
          </takeoffAngle>
        </arrival>
        <arrival publicID="smi:local/c77a7865-fd29-4a8a-8483-03927b15281b">
          <pickID>smi:local/ae1345de-0fa1-44b2-809a-07131715266c</pickID>
          <phase>S</phase>
          <azimuth>177.41441216878133</azimuth>
          <distance>606.2916909377406</distance>
          <takeoffAngle>
            <value>20.727237535437744</value>
          </takeoffAngle>
        </arrival>
        <arrival publicID="smi:local/26aea454-ab45-461e-bd86-c3ffa02ee2bc">
          <pickID>smi:local/2c9d01d1-7f1f-4637-bb52-d6e51a155101</pickID>
          <phase>P</phase>
          <azimuth>168.66795726223992</azimuth>
          <distance>644.8638595858276</distance>
          <takeoffAngle>
            <value>47.13180431811438</value>
          </takeoffAngle>
        </arrival>
        <arrival publicID="smi:local/e89e5857-ec03-497c-b282-bc06591775ce">
          <pickID>smi:local/5634d0ce-b9b4-476c-8887-ef6bec034347</pickID>
          <phase>S</phase>
          <azimuth>168.66795726223992</azimuth>
          <distance>644.8638595858276</distance>
          <takeoffAngle>
            <value>47.13180431811438</value>
          </takeoffAngle>
        </arrival>
        <arrival publicID="smi:local/2312fed5-d337-4c5e-b389-59b540ae9d14">
          <pickID>smi:local/0d7f9343-d038-4ddc-a1cf-6c8a961811bc</pickID>
          <phase>P</phase>
          <azimuth>-148.45211535213338</azimuth>
          <distance>675.2336968780735</distance>
          <takeoffAngle>
            <value>83.23506486581778</value>
          </takeoffAngle>
        </arrival>
        <arrival publicID="smi:local/a2cbac25-b5e9-44d8-bc84-1523345cd321">
          <pickID>smi:local/e502d057-723c-47ca-9699-c2fb80a9ea3d</pickID>
          <phase>S</phase>
          <azimuth>-148.45211535213338</azimuth>
          <distance>675.2336968780735</distance>
          <takeoffAngle>
            <value>83.23506486581778</value>
          </takeoffAngle>
        </arrival>
        <arrival publicID="smi:local/f773be07-130c-4a5f-806d-356a8cecd4f3">
          <pickID>smi:local/91645443-d285-4d54-8420-77893562fba9</pickID>
          <phase>P</phase>
          <azimuth>160.19543329036517</azimuth>
          <distance>681.7949915484239</distance>
          <takeoffAngle>
            <value>69.02911474327908</value>
          </takeoffAngle>
        </arrival>
        <arrival publicID="smi:local/abeaeaa6-58ee-42f5-81f8-8c0e22c5c5d8">
          <pickID>smi:local/17649846-5539-44e6-9ba9-95b2cd17daab</pickID>
          <phase>S</phase>
          <azimuth>160.19543329036517</azimuth>
          <distance>681.7949915484239</distance>
          <takeoffAngle>
            <value>69.02911474327908</value>
          </takeoffAngle>
        </arrival>
        <arrival publicID="smi:local/a2328715-4cd1-49dd-97b6-878917daf41a">
          <pickID>smi:local/4ad1cefb-5037-473d-8bcb-4b1d00d95223</pickID>
          <phase>P</phase>
          <azimuth>132.89982268583012</azimuth>
          <distance>689.0088402188306</distance>
          <takeoffAngle>
            <value>61.160377770708905</value>
          </takeoffAngle>
        </arrival>
        <arrival publicID="smi:local/3fcf1ad7-c064-43b5-a21f-2ca224477e08">
          <pickID>smi:local/4a867210-75d8-44ff-b77e-e717c8f6c505</pickID>
          <phase>S</phase>
          <azimuth>132.89982268583012</azimuth>
          <distance>689.0088402188306</distance>
          <takeoffAngle>
            <value>61.160377770708905</value>
          </takeoffAngle>
        </arrival>
        <arrival publicID="smi:local/981d96cf-9148-469b-bca3-7822512bcf19">
          <pickID>smi:local/3f00f02a-8c70-412a-94b5-c550266a68c0</pickID>
          <phase>P</phase>
          <azimuth>176.86081478668407</azimuth>
          <distance>728.9858705764861</distance>
          <takeoffAngle>
            <value>17.027574451443137</value>
          </takeoffAngle>
        </arrival>
        <arrival publicID="smi:local/9149acf4-3c85-4e1d-b8fd-1cff23e6443a">
          <pickID>smi:local/72e5dad2-2347-4f44-a184-dbac4042dbde</pickID>
          <phase>S</phase>
          <azimuth>176.86081478668407</azimuth>
          <distance>728.9858705764861</distance>
          <takeoffAngle>
            <value>17.027574451443137</value>
          </takeoffAngle>
        </arrival>
        <arrival publicID="smi:local/f89ce3ca-b4ed-405b-afa4-b84bb83aa9fb">
          <pickID>smi:local/75548faf-af6c-4a0e-bac9-9a94acef5832</pickID>
          <phase>P</phase>
          <azimuth>132.89982268583012</azimuth>
          <distance>772.6177463012987</distance>
          <takeoffAngle>
            <value>51.36872219677533</value>
          </takeoffAngle>
        </arrival>
        <arrival publicID="smi:local/2994f1e9-ae99-484b-ac9d-6a495a52dd15">
          <pickID>smi:local/80305c3d-0c0e-49c1-bca7-406b90de0859</pickID>
          <phase>S</phase>
          <azimuth>132.89982268583012</azimuth>
          <distance>772.6177463012987</distance>
          <takeoffAngle>
            <value>51.36872219677533</value>
          </takeoffAngle>
        </arrival>
        <arrival publicID="smi:local/c8b77104-8338-4daa-869e-8b02d940c3ba">
          <pickID>smi:local/8cfc7e7a-692b-43ed-ab51-932c0a4dc7ff</pickID>
          <phase>P</phase>
          <azimuth>163.86493931598812</azimuth>
          <distance>812.9839670006234</distance>
          <takeoffAngle>
            <value>57.86159975244941</value>
          </takeoffAngle>
        </arrival>
        <arrival publicID="smi:local/a2aeb0be-3b3b-47c6-9d74-89e5a4e343b4">
          <pickID>smi:local/41fb3842-55ce-4495-88bb-102a0f4143c2</pickID>
          <phase>S</phase>
          <azimuth>163.86493931598812</azimuth>
          <distance>812.9839670006234</distance>
          <takeoffAngle>
            <value>57.86159975244941</value>
          </takeoffAngle>
        </arrival>
        <arrival publicID="smi:local/e1ce7db6-7dcb-4210-bf2a-c2d9a548fe32">
          <pickID>smi:local/f44e0d77-1de1-4fbc-aa6e-9a3407a49102</pickID>
          <phase>P</phase>
          <azimuth>175.62764135557265</azimuth>
          <distance>822.8780921860493</distance>
          <takeoffAngle>
            <value>35.286953567591475</value>
          </takeoffAngle>
        </arrival>
        <arrival publicID="smi:local/6cda5dd2-d043-4ff0-84ba-9e627f0be898">
          <pickID>smi:local/955d00d3-6b52-4cf2-ac77-a9894832e1e1</pickID>
          <phase>S</phase>
          <azimuth>175.62764135557265</azimuth>
          <distance>822.8780921860493</distance>
          <takeoffAngle>
            <value>35.286953567591475</value>
          </takeoffAngle>
        </arrival>
        <arrival publicID="smi:local/948b8b62-9713-4856-b765-d5bc3b972410">
          <pickID>smi:local/0e2491d6-61f0-4814-a693-3ebff420850b</pickID>
          <phase>P</phase>
          <azimuth>-137.58086747445176</azimuth>
          <distance>852.3238821011646</distance>
          <takeoffAngle>
            <value>84.20896602188724</value>
          </takeoffAngle>
        </arrival>
        <arrival publicID="smi:local/b03e173c-bb4b-4ba6-a695-b4530ed3abd7">
          <pickID>smi:local/acc6a0f7-e8bd-4aef-a08f-cb9e85c986e4</pickID>
          <phase>S</phase>
          <azimuth>-137.58086747445176</azimuth>
          <distance>852.3238821011646</distance>
          <takeoffAngle>
            <value>84.20896602188724</value>
          </takeoffAngle>
        </arrival>
        <arrival publicID="smi:local/94938655-636a-4664-951d-b197b090f20e">
          <pickID>smi:local/3e92d754-d435-4b69-b65e-fd213bd9faf2</pickID>
          <phase>P</phase>
          <azimuth>45.0</azimuth>
          <distance>861.338493276598</distance>
          <takeoffAngle>
            <value>65.00127538288899</value>
          </takeoffAngle>
        </arrival>
        <arrival publicID="smi:local/c1f7afa6-49d6-4c6e-b71d-790dd8f26e83">
          <pickID>smi:local/7847536c-8965-431c-823a-8ad6eb856cd1</pickID>
          <phase>S</phase>
          <azimuth>45.0</azimuth>
          <distance>861.338493276598</distance>
          <takeoffAngle>
            <value>65.00127538288899</value>
          </takeoffAngle>
        </arrival>
        <arrival publicID="smi:local/714e723c-1606-4534-9e1e-811ae5644233">
          <pickID>smi:local/b81d1c7b-ba57-4db6-af73-822c97089a00</pickID>
          <phase>P</phase>
          <azimuth>77.59696384103927</azimuth>
          <distance>829.1997068258247</distance>
          <takeoffAngle>
            <value>68.93549046511738</value>
          </takeoffAngle>
        </arrival>
        <arrival publicID="smi:local/d2db3f22-d4b5-40a0-acc0-d2208ff9d684">
          <pickID>smi:local/c824159d-203d-412c-98f3-a2887845ed8b</pickID>
          <phase>S</phase>
          <azimuth>77.59696384103927</azimuth>
          <distance>829.1997068258247</distance>
          <takeoffAngle>
            <value>68.93549046511738</value>
          </takeoffAngle>
        </arrival>
        <arrival publicID="smi:local/283f19d1-4171-4c6b-861a-e558eb5dd634">
          <pickID>smi:local/523d77f8-d431-4e07-8184-0d895dff5850</pickID>
          <phase>P</phase>
          <azimuth>110.87250584857186</azimuth>
          <distance>889.5886689925856</distance>
          <takeoffAngle>
            <value>72.33139187459912</value>
          </takeoffAngle>
        </arrival>
        <arrival publicID="smi:local/347ecadd-35b6-4cd0-9010-bd17e5193b52">
          <pickID>smi:local/91dc2ad5-f271-4c84-81cc-70893835058f</pickID>
          <phase>S</phase>
          <azimuth>110.87250584857186</azimuth>
          <distance>889.5886689925856</distance>
          <takeoffAngle>
            <value>72.33139187459912</value>
          </takeoffAngle>
        </arrival>
        <arrival publicID="smi:local/7970d15c-6837-49bd-92f2-6de619c09c00">
          <pickID>smi:local/601621ee-a7d5-413d-862b-5bd2f695e0ed</pickID>
          <phase>P</phase>
          <azimuth>176.2950625871181</azimuth>
          <distance>853.8307284819116</distance>
          <takeoffAngle>
            <value>14.398938461054069</value>
          </takeoffAngle>
        </arrival>
        <arrival publicID="smi:local/68866010-22e2-41cc-88d9-30ac1a7d11a2">
          <pickID>smi:local/2c3153fd-a5bb-4c7d-af34-0ffb2adeff2f</pickID>
          <phase>S</phase>
          <azimuth>176.2950625871181</azimuth>
          <distance>853.8307284819116</distance>
          <takeoffAngle>
            <value>14.398938461054069</value>
          </takeoffAngle>
        </arrival>
        <arrival publicID="smi:local/89afe2b1-f17f-4f98-a4d8-9e1b347acf14">
          <pickID>smi:local/e8fe65eb-98e5-46d4-83a5-207d9731169e</pickID>
          <phase>P</phase>
          <azimuth>102.7324100098405</azimuth>
          <distance>868.6368631367195</distance>
          <takeoffAngle>
            <value>50.62989708670626</value>
          </takeoffAngle>
        </arrival>
        <arrival publicID="smi:local/5e218571-182e-4f26-a0f9-a5f3691b30ca">
          <pickID>smi:local/2bcd7fec-70c8-408d-97f1-6cd718bb5ae5</pickID>
          <phase>S</phase>
          <azimuth>102.7324100098405</azimuth>
          <distance>868.6368631367195</distance>
          <takeoffAngle>
            <value>50.62989708670626</value>
          </takeoffAngle>
        </arrival>
        <arrival publicID="smi:local/0760e790-c3c6-4092-b95f-432acc39e330">
          <pickID>smi:local/21d83855-09db-4f9c-9204-5701d9380e9c</pickID>
          <phase>P</phase>
          <azimuth>77.0790084188078</azimuth>
          <distance>888.3157648043355</distance>
          <takeoffAngle>
            <value>62.757009473608726</value>
          </takeoffAngle>
        </arrival>
        <arrival publicID="smi:local/293e13bc-75f8-4d26-abdd-efefd7c482b3">
          <pickID>smi:local/e528e688-154b-411e-8447-718c3ae570f4</pickID>
          <phase>S</phase>
          <azimuth>77.0790084188078</azimuth>
          <distance>888.3157648043355</distance>
          <takeoffAngle>
            <value>62.757009473608726</value>
          </takeoffAngle>
        </arrival>
        <arrival publicID="smi:local/5b437900-c535-4d49-b383-4caf54a289a7">
          <pickID>smi:local/1535d36a-9be8-438a-81c4-aa209f9deed6</pickID>
          <phase>P</phase>
          <azimuth>132.89982268583012</azimuth>
          <distance>874.1528366937317</distance>
          <takeoffAngle>
            <value>43.66524563436715</value>
          </takeoffAngle>
        </arrival>
        <arrival publicID="smi:local/8194b2d6-49ee-42e1-85e6-eb50d9af4ac6">
          <pickID>smi:local/948d6bde-8468-4a03-bb2c-8ceb5805a7c0</pickID>
          <phase>S</phase>
          <azimuth>132.89982268583012</azimuth>
          <distance>874.1528366937317</distance>
          <takeoffAngle>
            <value>43.66524563436715</value>
          </takeoffAngle>
        </arrival>
        <arrival publicID="smi:local/fbe2ae74-a637-4c4e-894f-ec8bdcb2f421">
          <pickID>smi:local/bcf8e965-39d8-4f29-a35d-306b7bebd535</pickID>
          <phase>P</phase>
          <azimuth>45.0</azimuth>
          <distance>913.2819936908862</distance>
          <takeoffAngle>
            <value>58.73431491752677</value>
          </takeoffAngle>
        </arrival>
        <arrival publicID="smi:local/d15d8923-c586-4204-a87c-48f434f3e42f">
          <pickID>smi:local/7eb0fa1b-3dda-4f95-970e-238ab6f1620a</pickID>
          <phase>S</phase>
          <azimuth>45.0</azimuth>
          <distance>913.2819936908862</distance>
          <takeoffAngle>
            <value>58.73431491752677</value>
          </takeoffAngle>
        </arrival>
        <arrival publicID="smi:local/9a35ac76-d8ea-4b66-b910-cb224d726a81">
          <pickID>smi:local/a2b0dbe3-28e9-4cca-9040-0f57720295ce</pickID>
          <phase>P</phase>
          <azimuth>112.18702441185783</azimuth>
          <distance>939.2214861256103</distance>
          <takeoffAngle>
            <value>65.59976933221935</value>
          </takeoffAngle>
        </arrival>
        <arrival publicID="smi:local/6cf03ab0-1c49-4f06-801f-67d03659d975">
          <pickID>smi:local/0e7fd5d5-85c7-44df-a452-65b434a80dd8</pickID>
          <phase>S</phase>
          <azimuth>112.18702441185783</azimuth>
          <distance>939.2214861256103</distance>
          <takeoffAngle>
            <value>65.59976933221935</value>
          </takeoffAngle>
        </arrival>
        <arrival publicID="smi:local/7d032a62-0900-43c7-af0e-dce57e1f9eb5">
          <pickID>smi:local/be7cbb6f-6583-4e2d-9ec8-17c7de023a08</pickID>
          <phase>P</phase>
          <azimuth>102.26128072176901</azimuth>
          <distance>951.6138922903554</distance>
          <takeoffAngle>
            <value>47.08219760535804</value>
          </takeoffAngle>
        </arrival>
        <arrival publicID="smi:local/6c20c817-6234-4647-a03a-d8cbf7cea352">
          <pickID>smi:local/d5fe3e5f-72d9-4ad0-90a7-8dc308f99fc8</pickID>
          <phase>S</phase>
          <azimuth>102.26128072176901</azimuth>
          <distance>951.6138922903554</distance>
          <takeoffAngle>
            <value>47.08219760535804</value>
          </takeoffAngle>
        </arrival>
        <arrival publicID="smi:local/1ca756f7-871e-44f7-ab60-1d3e5e338fdc">
          <pickID>smi:local/c4137560-41d6-4045-8043-8ede681b0262</pickID>
          <phase>P</phase>
          <azimuth>76.50095329219283</azimuth>
          <distance>962.8842672409876</distance>
          <takeoffAngle>
            <value>56.95133975459105</value>
          </takeoffAngle>
        </arrival>
        <arrival publicID="smi:local/c86e88ab-4335-4f49-9171-b20f69af7e1b">
          <pickID>smi:local/227504e8-d0f8-4751-aba8-a9594dac3826</pickID>
          <phase>S</phase>
          <azimuth>76.50095329219283</azimuth>
          <distance>962.8842672409876</distance>
          <takeoffAngle>
            <value>56.95133975459105</value>
          </takeoffAngle>
        </arrival>
        <arrival publicID="smi:local/62c6502d-111b-4822-9aa0-11ccce939395">
          <pickID>smi:local/da4a226b-cfa4-4fb1-8796-a545fca1674c</pickID>
          <phase>P</phase>
          <azimuth>166.96477243309312</azimuth>
          <distance>966.705978930617</distance>
          <takeoffAngle>
            <value>49.97187981322139</value>
          </takeoffAngle>
        </arrival>
        <arrival publicID="smi:local/9818e542-c7e7-4885-93b1-86523d40c62d">
          <pickID>smi:local/033cb8ef-f3ea-4c71-9583-977c24b7ebbb</pickID>
