<?xml version='1.0' encoding='utf-8'?>
<q:quakeml xmlns:ns0="MICROQUAKE" xmlns:q="http://quakeml.org/xmlns/quakeml/1.2" xmlns="http://quakeml.org/xmlns/bed/1.2">
  <eventParameters publicID="smi:local/5cdc0136-2641-4bc9-8d67-7c9097114371">
    <event publicID="smi:local/ebc11696-8d30-4366-a1c3-4c4dadf23bf5">
      <preferredOriginID>smi:local/99864e14-40ba-4be7-8169-b50fbdd36c94</preferredOriginID>
      <preferredMagnitudeID>smi:local/c81cd31f-1719-4c91-a6b3-1c7441f67072</preferredMagnitudeID>
      <type>earthquake</type>
      <origin publicID="smi:local/26e69222-6706-4996-a3e2-33aaa1e25784">
        <time>
          <value>2018-04-14T19:44:22.166205Z</value>
        </time>
        <latitude/>
        <longitude/>
        <evaluationMode>manual</evaluationMode>
        <evaluationStatus>reviewed</evaluationStatus>
        <arrival publicID="smi:local/6c973f53-b2e2-478b-b314-8bb662c0affe">
          <pickID>smi:local/9f7d81a7-06d8-4fb9-b40b-88a98d5bdae9</pickID>
          <phase>P</phase>
          <azimuth>178.2614948939772</azimuth>
          <distance>371.87837648889405</distance>
          <takeoffAngle>
            <value>35.67789585095657</value>
          </takeoffAngle>
        </arrival>
        <arrival publicID="smi:local/c947c7bd-de43-4fcb-b2fa-f06b85bf1691">
          <pickID>smi:local/41e17a9d-5a92-4e63-a532-4af91c62c020</pickID>
          <phase>S</phase>
          <azimuth>178.2614948939772</azimuth>
          <distance>371.87837648889405</distance>
          <takeoffAngle>
            <value>35.67789585095657</value>
          </takeoffAngle>
        </arrival>
        <arrival publicID="smi:local/817cec88-6b87-40d0-bbba-7ca67b845f52">
          <pickID>smi:local/9a47d5b1-ba21-4af7-a8dd-1231e0f8a0fe</pickID>
          <phase>P</phase>
          <azimuth>177.8136319247351</azimuth>
          <distance>487.4098303277522</distance>
          <takeoffAngle>
            <value>26.269817796789784</value>
          </takeoffAngle>
        </arrival>
        <arrival publicID="smi:local/f030aa11-bfa1-4505-842f-2fc3c1c2243b">
          <pickID>smi:local/b07fa321-cbe1-4028-9b1c-095e4f8cdcee</pickID>
          <phase>S</phase>
          <azimuth>177.8136319247351</azimuth>
          <distance>487.4098303277522</distance>
          <takeoffAngle>
            <value>26.269817796789784</value>
          </takeoffAngle>
        </arrival>
        <arrival publicID="smi:local/8825a599-912d-4356-ba8a-2cc1d7ce0392">
          <pickID>smi:local/c768d983-aa9a-4eed-bf7d-312510111399</pickID>
          <phase>P</phase>
          <azimuth>161.1894389558746</azimuth>
          <distance>518.6522183503711</distance>
          <takeoffAngle>
            <value>66.49663777320924</value>
          </takeoffAngle>
        </arrival>
        <arrival publicID="smi:local/94df7fd2-4bc1-4030-9dc3-6053829b97c2">
          <pickID>smi:local/6a663a9c-1e51-4296-9f00-245567c80144</pickID>
          <phase>S</phase>
          <azimuth>161.1894389558746</azimuth>
          <distance>518.6522183503711</distance>
          <takeoffAngle>
            <value>66.49663777320924</value>
          </takeoffAngle>
        </arrival>
        <arrival publicID="smi:local/62ae80d2-1f37-4533-aaa5-b45d69d1d8f9">
          <pickID>smi:local/589f536b-ff4e-4bd6-be52-a4a7f783ae4c</pickID>
          <phase>P</phase>
          <azimuth>177.41441216878133</azimuth>
          <distance>606.2916909377406</distance>
          <takeoffAngle>
            <value>20.727237535437744</value>
          </takeoffAngle>
        </arrival>
        <arrival publicID="smi:local/3c02e278-5b30-4ace-88c2-152ff6b80982">
          <pickID>smi:local/cde127d2-1399-4de0-a509-a823d24d5676</pickID>
          <phase>S</phase>
          <azimuth>177.41441216878133</azimuth>
          <distance>606.2916909377406</distance>
          <takeoffAngle>
            <value>20.727237535437744</value>
          </takeoffAngle>
        </arrival>
        <arrival publicID="smi:local/9e08f405-31cb-4018-a839-985387ebcbeb">
          <pickID>smi:local/59baf828-ec29-4706-a035-d584bfc728fe</pickID>
          <phase>P</phase>
          <azimuth>168.66795726223992</azimuth>
          <distance>644.8638595858276</distance>
          <takeoffAngle>
            <value>47.13180431811438</value>
          </takeoffAngle>
        </arrival>
        <arrival publicID="smi:local/40d3d0ba-91c1-43a2-9e87-3b377cdb74d5">
          <pickID>smi:local/f24381b7-7c6c-49ef-9b84-8a633355ae79</pickID>
          <phase>S</phase>
          <azimuth>168.66795726223992</azimuth>
          <distance>644.8638595858276</distance>
          <takeoffAngle>
            <value>47.13180431811438</value>
          </takeoffAngle>
        </arrival>
        <arrival publicID="smi:local/4e2e5c0b-fa64-467b-b74c-d6c863968208">
          <pickID>smi:local/d504f0b7-6857-40b2-993b-f41b3b5f9dcb</pickID>
          <phase>P</phase>
          <azimuth>-148.45211535213338</azimuth>
          <distance>675.2336968780735</distance>
          <takeoffAngle>
            <value>83.23506486581778</value>
          </takeoffAngle>
        </arrival>
        <arrival publicID="smi:local/526a14ab-a3ae-46c9-94df-15f44fc2ba2a">
          <pickID>smi:local/b36c424d-677e-4348-bb89-f97001fa06c2</pickID>
          <phase>S</phase>
          <azimuth>-148.45211535213338</azimuth>
          <distance>675.2336968780735</distance>
          <takeoffAngle>
            <value>83.23506486581778</value>
          </takeoffAngle>
        </arrival>
        <arrival publicID="smi:local/8d9f47f1-fdc2-4e61-b6ca-f93abcf91448">
          <pickID>smi:local/506a0571-96b7-4b6e-af3d-662375866044</pickID>
          <phase>P</phase>
          <azimuth>160.19543329036517</azimuth>
          <distance>681.7949915484239</distance>
          <takeoffAngle>
            <value>69.02911474327908</value>
          </takeoffAngle>
        </arrival>
        <arrival publicID="smi:local/3f5f562e-0969-4584-8d4b-f6d6a913c890">
          <pickID>smi:local/4122d258-2770-4102-b968-a7b76f0396f2</pickID>
          <phase>S</phase>
          <azimuth>160.19543329036517</azimuth>
          <distance>681.7949915484239</distance>
          <takeoffAngle>
            <value>69.02911474327908</value>
          </takeoffAngle>
        </arrival>
        <arrival publicID="smi:local/245565e0-c65b-441c-af42-58a37dac104c">
          <pickID>smi:local/57fb74cf-2e3f-4295-b06d-f8655d266948</pickID>
          <phase>P</phase>
          <azimuth>132.89982268583012</azimuth>
          <distance>689.0088402188306</distance>
          <takeoffAngle>
            <value>61.160377770708905</value>
          </takeoffAngle>
        </arrival>
        <arrival publicID="smi:local/9021a66d-c903-4b78-8548-6a30a5f233dc">
          <pickID>smi:local/9c5774bb-303a-4c42-a990-1355dd475958</pickID>
          <phase>S</phase>
          <azimuth>132.89982268583012</azimuth>
          <distance>689.0088402188306</distance>
          <takeoffAngle>
            <value>61.160377770708905</value>
          </takeoffAngle>
        </arrival>
        <arrival publicID="smi:local/cf8e92d0-309b-41b4-9fb1-fb0787e27a78">
          <pickID>smi:local/63c94779-9a68-4614-8df7-89e6e62c1eda</pickID>
          <phase>P</phase>
          <azimuth>176.86081478668407</azimuth>
          <distance>728.9858705764861</distance>
          <takeoffAngle>
            <value>17.027574451443137</value>
          </takeoffAngle>
        </arrival>
        <arrival publicID="smi:local/d07b2707-f1f5-45ba-bccb-af40056e2ac8">
          <pickID>smi:local/42269346-131e-4b44-84f6-6fe7d50a5f44</pickID>
          <phase>S</phase>
          <azimuth>176.86081478668407</azimuth>
          <distance>728.9858705764861</distance>
          <takeoffAngle>
            <value>17.027574451443137</value>
          </takeoffAngle>
        </arrival>
        <arrival publicID="smi:local/0620cc80-1f97-401b-ae9a-d93f729c86f8">
          <pickID>smi:local/20b2981b-a5cf-4797-b682-3538034bac16</pickID>
          <phase>P</phase>
          <azimuth>132.89982268583012</azimuth>
          <distance>772.6177463012987</distance>
          <takeoffAngle>
            <value>51.36872219677533</value>
          </takeoffAngle>
        </arrival>
        <arrival publicID="smi:local/b625d9e6-36dc-4cf1-af36-7d1c4e1b55c8">
          <pickID>smi:local/cc7ba076-b720-4dfc-a915-e1fda6372ef4</pickID>
          <phase>S</phase>
          <azimuth>132.89982268583012</azimuth>
          <distance>772.6177463012987</distance>
          <takeoffAngle>
            <value>51.36872219677533</value>
          </takeoffAngle>
        </arrival>
        <arrival publicID="smi:local/1766c206-685d-49d5-9077-bbfce9a6b1e2">
          <pickID>smi:local/25f333e6-053e-46b3-b098-72c8dcae5634</pickID>
          <phase>P</phase>
          <azimuth>163.86493931598812</azimuth>
          <distance>812.9839670006234</distance>
          <takeoffAngle>
            <value>57.86159975244941</value>
          </takeoffAngle>
        </arrival>
        <arrival publicID="smi:local/5e146488-ecfd-4950-9c97-d69f5456bd23">
          <pickID>smi:local/07f861f0-2ca4-4b4f-91c2-4d78e51898b3</pickID>
          <phase>S</phase>
          <azimuth>163.86493931598812</azimuth>
          <distance>812.9839670006234</distance>
          <takeoffAngle>
            <value>57.86159975244941</value>
          </takeoffAngle>
        </arrival>
        <arrival publicID="smi:local/63126515-a8b4-464f-9887-dc80907075dd">
          <pickID>smi:local/47d48856-a36f-4a07-ac3e-73604a723b89</pickID>
          <phase>P</phase>
          <azimuth>175.62764135557265</azimuth>
          <distance>822.8780921860493</distance>
          <takeoffAngle>
            <value>35.286953567591475</value>
          </takeoffAngle>
        </arrival>
        <arrival publicID="smi:local/8179c288-edf8-4885-a6c0-23d71bd8e41e">
          <pickID>smi:local/7ebda6e9-e50d-4d23-b1b5-a8a5972b99a3</pickID>
          <phase>S</phase>
          <azimuth>175.62764135557265</azimuth>
          <distance>822.8780921860493</distance>
          <takeoffAngle>
            <value>35.286953567591475</value>
          </takeoffAngle>
        </arrival>
        <arrival publicID="smi:local/0a22d46f-02b3-445a-a7c7-4ee2e03cca41">
          <pickID>smi:local/bf2c872b-044b-4af2-bb5e-19a218f0f2ea</pickID>
          <phase>P</phase>
          <azimuth>-137.58086747445176</azimuth>
          <distance>852.3238821011646</distance>
          <takeoffAngle>
            <value>84.20896602188724</value>
          </takeoffAngle>
        </arrival>
        <arrival publicID="smi:local/c0745eea-24ba-4662-a408-6228659d9ce4">
          <pickID>smi:local/5bd228d0-fe6c-41e0-ba15-0a1cfdeacb5b</pickID>
          <phase>S</phase>
          <azimuth>-137.58086747445176</azimuth>
          <distance>852.3238821011646</distance>
          <takeoffAngle>
            <value>84.20896602188724</value>
          </takeoffAngle>
        </arrival>
        <arrival publicID="smi:local/58c5cda8-840e-4792-b1e2-993a2d4ebb5c">
          <pickID>smi:local/0d2fd8f0-0214-498d-a463-fdace16dbda8</pickID>
          <phase>P</phase>
          <azimuth>45.0</azimuth>
          <distance>861.338493276598</distance>
          <takeoffAngle>
            <value>65.00127538288899</value>
          </takeoffAngle>
        </arrival>
        <arrival publicID="smi:local/d14a723c-60c5-4269-ae98-c49bc57d7519">
          <pickID>smi:local/e6ee0c1a-e906-44d5-aa42-00dcc955f10e</pickID>
          <phase>S</phase>
          <azimuth>45.0</azimuth>
          <distance>861.338493276598</distance>
          <takeoffAngle>
            <value>65.00127538288899</value>
          </takeoffAngle>
        </arrival>
        <arrival publicID="smi:local/c825d0be-0749-4c47-a3f6-bc090632dfa3">
          <pickID>smi:local/fc633030-1c33-40e1-89fb-596f3e76885f</pickID>
          <phase>P</phase>
          <azimuth>77.59696384103927</azimuth>
          <distance>829.1997068258247</distance>
          <takeoffAngle>
            <value>68.93549046511738</value>
          </takeoffAngle>
        </arrival>
        <arrival publicID="smi:local/d0850489-0dab-4e4c-8c73-a048347e01e3">
          <pickID>smi:local/8e2310e8-ae13-4157-8bb6-d69b714135f4</pickID>
          <phase>S</phase>
          <azimuth>77.59696384103927</azimuth>
          <distance>829.1997068258247</distance>
          <takeoffAngle>
            <value>68.93549046511738</value>
          </takeoffAngle>
        </arrival>
        <arrival publicID="smi:local/6d72267a-4181-48c2-bbf0-c98a1e5b505d">
          <pickID>smi:local/a287595d-858e-43d9-a5a2-1450c343c775</pickID>
          <phase>P</phase>
          <azimuth>110.87250584857186</azimuth>
          <distance>889.5886689925856</distance>
          <takeoffAngle>
            <value>72.33139187459912</value>
          </takeoffAngle>
        </arrival>
        <arrival publicID="smi:local/14968656-3f75-408c-8ec6-13e76dccf88c">
          <pickID>smi:local/8952cab8-ad94-42e9-8ebf-9246d8369dff</pickID>
          <phase>S</phase>
          <azimuth>110.87250584857186</azimuth>
          <distance>889.5886689925856</distance>
          <takeoffAngle>
            <value>72.33139187459912</value>
          </takeoffAngle>
        </arrival>
        <arrival publicID="smi:local/262bc75c-8d34-4265-a5eb-1e03519fb89e">
          <pickID>smi:local/9f6f0a90-c49b-4d5e-a6c7-b2273a4836aa</pickID>
          <phase>P</phase>
          <azimuth>176.2950625871181</azimuth>
          <distance>853.8307284819116</distance>
          <takeoffAngle>
            <value>14.398938461054069</value>
          </takeoffAngle>
        </arrival>
        <arrival publicID="smi:local/18781d82-c1a7-4f2a-89f5-087b299dea0c">
          <pickID>smi:local/6efd3c4a-e68b-4a83-8aac-b51528b3c417</pickID>
          <phase>S</phase>
          <azimuth>176.2950625871181</azimuth>
          <distance>853.8307284819116</distance>
          <takeoffAngle>
            <value>14.398938461054069</value>
          </takeoffAngle>
        </arrival>
        <arrival publicID="smi:local/7ae32018-e84c-4298-9365-e045baa7afda">
          <pickID>smi:local/7eb90983-44c4-4907-8290-0019431de3c1</pickID>
          <phase>P</phase>
          <azimuth>102.7324100098405</azimuth>
          <distance>868.6368631367195</distance>
          <takeoffAngle>
            <value>50.62989708670626</value>
          </takeoffAngle>
        </arrival>
        <arrival publicID="smi:local/1e244935-c912-416a-97f1-9b6c8c645409">
          <pickID>smi:local/57dd6aa4-52d9-4698-8ccb-2a8ba88f1f4a</pickID>
          <phase>S</phase>
          <azimuth>102.7324100098405</azimuth>
          <distance>868.6368631367195</distance>
          <takeoffAngle>
            <value>50.62989708670626</value>
          </takeoffAngle>
        </arrival>
        <arrival publicID="smi:local/b7d48dc9-120e-4707-9b06-a193ddbc0401">
          <pickID>smi:local/22cd8340-0d73-4e3d-b16e-148ed537068a</pickID>
          <phase>P</phase>
          <azimuth>77.0790084188078</azimuth>
          <distance>888.3157648043355</distance>
          <takeoffAngle>
            <value>62.757009473608726</value>
          </takeoffAngle>
        </arrival>
        <arrival publicID="smi:local/ef487641-f4fb-41e1-8ffb-7a6ad6794aa2">
          <pickID>smi:local/81c48df8-06ca-44e4-a680-d80ba971a3bc</pickID>
          <phase>S</phase>
          <azimuth>77.0790084188078</azimuth>
          <distance>888.3157648043355</distance>
          <takeoffAngle>
            <value>62.757009473608726</value>
          </takeoffAngle>
        </arrival>
        <arrival publicID="smi:local/69286291-f55f-4817-bc60-a9c57847abe0">
          <pickID>smi:local/93e9203f-de49-416d-81f1-914534990158</pickID>
          <phase>P</phase>
          <azimuth>132.89982268583012</azimuth>
          <distance>874.1528366937317</distance>
          <takeoffAngle>
            <value>43.66524563436715</value>
          </takeoffAngle>
        </arrival>
        <arrival publicID="smi:local/0cce2153-49e5-4396-a5c8-c11c6a4df8ca">
          <pickID>smi:local/86355d49-4c0f-4fc0-b52c-6c2d6b161cbc</pickID>
          <phase>S</phase>
          <azimuth>132.89982268583012</azimuth>
          <distance>874.1528366937317</distance>
          <takeoffAngle>
            <value>43.66524563436715</value>
          </takeoffAngle>
        </arrival>
        <arrival publicID="smi:local/6837a53a-d086-4663-b78f-88c6ea8be665">
          <pickID>smi:local/c37ada64-c413-4eee-8c6d-f1f3df76146e</pickID>
          <phase>P</phase>
          <azimuth>45.0</azimuth>
          <distance>913.2819936908862</distance>
          <takeoffAngle>
            <value>58.73431491752677</value>
          </takeoffAngle>
        </arrival>
        <arrival publicID="smi:local/800881f3-2ee6-4290-8af2-c829dbc9016b">
          <pickID>smi:local/c619c496-6034-4a6f-9220-298e3962974b</pickID>
          <phase>S</phase>
          <azimuth>45.0</azimuth>
          <distance>913.2819936908862</distance>
          <takeoffAngle>
            <value>58.73431491752677</value>
          </takeoffAngle>
        </arrival>
        <arrival publicID="smi:local/9d4557c2-6d55-46e5-ab55-38abbbebd231">
          <pickID>smi:local/97f8db69-d6a8-4b1b-ae4b-acab0a14ebac</pickID>
          <phase>P</phase>
          <azimuth>112.18702441185783</azimuth>
          <distance>939.2214861256103</distance>
          <takeoffAngle>
            <value>65.59976933221935</value>
          </takeoffAngle>
        </arrival>
        <arrival publicID="smi:local/dbb1e9a8-6f06-4726-8595-20100b7419e1">
          <pickID>smi:local/34d8618b-e20d-426d-b457-377f1afedb28</pickID>
          <phase>S</phase>
          <azimuth>112.18702441185783</azimuth>
          <distance>939.2214861256103</distance>
          <takeoffAngle>
            <value>65.59976933221935</value>
          </takeoffAngle>
        </arrival>
        <arrival publicID="smi:local/155ca1b9-bc73-43b3-b23e-ef33f15f9bb0">
          <pickID>smi:local/a645f54e-3862-46cb-aeec-c90e2adae9de</pickID>
          <phase>P</phase>
          <azimuth>102.26128072176901</azimuth>
          <distance>951.6138922903554</distance>
          <takeoffAngle>
            <value>47.08219760535804</value>
          </takeoffAngle>
        </arrival>
        <arrival publicID="smi:local/3022d185-9992-4f36-b2fc-8d6cef4c87a3">
          <pickID>smi:local/6e23a46d-4b19-4b34-ad99-d30fe16d5676</pickID>
          <phase>S</phase>
          <azimuth>102.26128072176901</azimuth>
          <distance>951.6138922903554</distance>
          <takeoffAngle>
            <value>47.08219760535804</value>
          </takeoffAngle>
        </arrival>
        <arrival publicID="smi:local/618aa043-059a-4b62-a88a-c96dd221b122">
          <pickID>smi:local/7b95fe4f-0045-4b6b-a9d3-3a9a879ea80b</pickID>
          <phase>P</phase>
          <azimuth>76.50095329219283</azimuth>
          <distance>962.8842672409876</distance>
          <takeoffAngle>
            <value>56.95133975459105</value>
          </takeoffAngle>
        </arrival>
        <arrival publicID="smi:local/b4c4dc6e-9779-465d-a300-899b133561cb">
          <pickID>smi:local/35533491-6ce5-41e4-8c0a-39e8b11e5baa</pickID>
          <phase>S</phase>
          <azimuth>76.50095329219283</azimuth>
          <distance>962.8842672409876</distance>
          <takeoffAngle>
            <value>56.95133975459105</value>
          </takeoffAngle>
        </arrival>
        <arrival publicID="smi:local/e5709d34-9ccd-4753-99ee-3d820e9be293">
          <pickID>smi:local/8cb731c5-22b7-4f0e-b73b-e811e92ab616</pickID>
          <phase>P</phase>
          <azimuth>166.96477243309312</azimuth>
          <distance>966.705978930617</distance>
          <takeoffAngle>
            <value>49.97187981322139</value>
          </takeoffAngle>
        </arrival>
        <arrival publicID="smi:local/6e049299-ac02-43fd-8d41-3b408cbb2b98">
          <pickID>smi:local/660bcea3-d208-4b5a-9628-e6aaf822f242</pickID>
